Name,Tagline,Phone,Profile Link,Email,Website,Address,City,Postcode,Tier,NAICS Info,Social Media Links
Tree of Life Dispensary Las Vegas,Cannabis,(702) 536-4200,https://www.sbdpro.com/business/tree-of-life-dispensary-las-vegas,,,,,,,,
Limelight Projection Mapping 3D Content and Immersive Experience Studios - Las Vegas,Events production company,(725) 712-8016,https://www.sbdpro.com/business/limelight-projection-mapping-3d-content-and-immersive-experience-studios-las-vegas,,,,,,,,
Carpenter Renovations,Carpenter Renovations,(702) 201-7669,https://www.sbdpro.com/business/carpenter-renovations,,,,,,,,
Alpha Accident Lawyers,"After an Accident, Start with Alpha.",(725) 300-0124,https://www.sbdpro.com/business/alpha-accident-lawyers,,,,,,,,
Raich Law - Business Lawyer Las Vegas,Business Lawyers,(702) 758-4240,https://www.sbdpro.com/business/raich-law-business-lawyer-las-vegas,,,,,,,,
Triple 7 Movers Las Vegas,The right choice of moving companies Las Vegas!,(702) 685-6888,https://www.sbdpro.com/business/triple-7-movers-las-vegas,,,,,,,,
Peak Services Group,Las Vegas Roof cleaning for sensitive panels,(725) 444-5935,https://www.sbdpro.com/business/peak-services-group,,,,,,,,
IV Hydration Las Vegas,IV hydration services to your room,(702) 651-1112,https://www.sbdpro.com/business/iv-hydration-las-vegas,,,,,,,,
Macjweb,Digital marketing agency in Las Vegas,(858) 598-4909,https://www.sbdpro.com/business/macjweb,,,,,,,,
Elite Brothers Construction,"Small homes, infinite possibilities: Casitas and ADUs that inspire!",(702) 832-4565,https://www.sbdpro.com/business/elite-brothers-construction,,,,,,,,
Park Place Properties,Property management company,(310) 936-5172,https://www.sbdpro.com/business/park-place-properties,,,,,,,,
WheelZen Rides,Las Vegas e-scooter shop,(702) 992-3750,https://www.sbdpro.com/business/wheelzen-rides,,,,,,,,
Artistic Iron Works,Custom iron doors and gates,(702) 387-8688,https://www.sbdpro.com/business/artistic-iron-works,,,,,,,,
Davidoff of Geneva Cigar Bar,Premier Las Vegas cigar bar & lounge,(702) 473-5001,https://www.sbdpro.com/business/davidoff-of-geneva-cigar-bar,,,,,,,,
Ampere Electric,"Third generation electrical company, serving Las Vegas for 35+ years",(702) 979-1747,https://www.sbdpro.com/business/ampere-electric,,,,,,,,
979 Tint,"Window tint, wraps, PPF film, ceramic coatings, safety & security film",(702) 979-8468,https://www.sbdpro.com/business/979-tint,,,,,,,,
Express Gym Supply Las Vegas NV,Fitness equipment repair and sales,(844) 777-4967,https://www.sbdpro.com/business/express-gym-supply-las-vegas-nv,,,,,,,,
The Schnitzer Law Firm,Personal injury attorney in Las Vegas,(702) 960-4050,https://www.sbdpro.com/business/the-schnitzer-law-firm,,,,,,,,
John Bognot Photography,Your adventurous Las Vegas wedding photographer,(442) 281-0127,https://www.sbdpro.com/business/john-bognot-photography,,,,,,,,
Eyebrows R Us,Las Vegas eyebrow salon,(702) 606-2769,https://www.sbdpro.com/business/eyebrows-r-us,,,,,,,,
The Janda Law Firm,Las Vegas personal injury lawyers - fighting for justice on your behalf,(702) 758-8888,https://www.sbdpro.com/business/the-janda-law-firm,,,,,,,,
GreenSense Billing,"Reduce claim denials, boost reimbursements!",(188) 848-3143,https://www.sbdpro.com/business/greensense-billing,,,,,,,,
Virtue Recovery Las Vegas | Robindale Treatment Center,Las Vegas addiction treatment center,(702) 323-5017,https://www.sbdpro.com/business/virtue-recovery-las-vegas-robindale-treatment-center,,,,,,,,
Immaculate Restoration,Getting you the results you deserve,(702) 829-2900,https://www.sbdpro.com/business/immaculate-restoration,,,,,,,,
Signature Plumbing,Las Vegas plumbing services,(702) 867-9553,https://www.sbdpro.com/business/signature-plumbing,,,,,,,,
Custom Trade Show Booth Design Company,Las Vegas custom show booth design,(725) 214-4524,https://www.sbdpro.com/business/custom-trade-show-booth-design-company-usa,,,,,,,,
Taylor Smith,Las Vegas criminal defense attorney,(702) 996-8683,https://www.sbdpro.com/business/taylor-smith-criminal-defense-attorney,,,,,,,,
Hydro-Jetting Pros,Las Vegas hydro jetting plumbing and drain cleaning contractor,(702) 860-9178,https://www.sbdpro.com/business/hydro-jetting-pros,,,,,,,,
Arteaga's Concrete,,(702) 813-9108,https://www.sbdpro.com/business/arteaga-s-concrete,,,,,,,,
Bob's Repair,"Las Vegas AC, heating and solar experts",(702) 830-4592,https://www.sbdpro.com/business/bob-s-repair-ac-heating-and-solar-experts-las-veg,,,,,,,,
Virtual Mojoe,,(217) 636-4681,https://www.sbdpro.com/business/virtual-mojoe,,,,,,,,
Subcity Life,Pool management apps,(844) 782-2489,https://www.sbdpro.com/business/subcity-life,,,,,,,,
The Nestled Recovery Center,Las Vegas addiction treatment center,(702) 299-6406,https://www.sbdpro.com/business/the-nestled-recovery-center,,,,,,,,
The Safe Keeper,Las Vegas Safe & Vault Store,(702) 873-7233,https://www.sbdpro.com/business/the-safe-keeper,,,,,,,,
Eco Friendly Air Conditioning & Heating,"Las Vegas AC Repair, AC Replacement, Duct Cleaning",(702) 516-9999,https://www.sbdpro.com/business/eco-friendly-air-conditioning-heating,,,,,,,,
Sofia Maffioli Secrets Spa,Las Vegas Day Spa,(702) 287-4591,https://www.sbdpro.com/business/sofia-maffioli-secrets-spa,,,,,,,,
Zedtreeo,Las Vegas outsourcing and remote staffing solutions,(725) 977-3776,https://www.sbdpro.com/business/zedtreeo,,,,,,,,
Benson & Bingham Accident Injury Lawyers,Summerlin Personal Injury Law Firm,(702) 684-6900,https://www.sbdpro.com/business/benson-bingham-accident-injury-lawyers-llc-su,,,,,,,,
Strive Enterprise,Las Vegas SEO services,(833) 886-2681,https://www.sbdpro.com/business/strive-enterprise,,,,,,,,
TrueBlue Exhibits,Las Vegas custom trade show booth LED video walls,(702) 445-8294,https://www.sbdpro.com/business/trueblue-exhibits,,,,,,,,
HomRem LLC,Las Vegas home remodel supplies,(702) 343-2326,https://www.sbdpro.com/business/homrem-llc,,,,,,,,
Artistic Oceans,Las Vegas aquarium store,(702) 405-6732,https://www.sbdpro.com/business/artistic-oceans,,,,,,,,
H&P Law,Personal Injury Lawyer in Las Vegas,(702) 598-4529,https://www.sbdpro.com/business/h-p-law,,,,,,,,
Skynet Technologies USA LLC,Las Vegas Website Design & Development,(725) 222-4706,https://www.sbdpro.com/business/skynet-technologies-usa-llc,,,,,,,,
Las Vegas Water Delivery,Bottled water delivery in Las Vegas,(702) 602-0793,https://www.sbdpro.com/business/las-vegas-water-delivery,,,,,,,,
Adam S. Kutner Injury Attorneys,Las Vegas accident & injury attorney,(702) 382-0000,https://www.sbdpro.com/business/adam-s-kutner-injury-attorneys,,,,,,,,
Be Bolder SEO,Las Vegas SEO Digital Marketing Agency,(775) 835-4876,https://www.sbdpro.com/business/be-bolder-seo,,,,,,,,
Coffey and Rader CPAs,"Guiding Your Finances, Empowering Your Future",(435) 773-2171,https://www.sbdpro.com/business/coffey-and-rader-cpas,,,,,,,,
Autoverse Rental Car,Las Vegas rental cars,(702) 800-9796,https://www.sbdpro.com/business/autoverse-rental-car,,,,,,,,
SEO Las Vegas,"Generate consistent, qualified leads for your Las Vegas business",(929) 566-4655,https://www.sbdpro.com/business/seo-las-vegas,,,,,,,,
All European,Auto Repair Las Vegas,(702) 363-9191,https://www.sbdpro.com/business/all-european-i-auto-repair-las-vegas,,,,,,,,
John Minoli MD FACS,Las Vegas Cosmetic Surgery,(702) 459-3223,https://www.sbdpro.com/business/john-minoli-md-facs-las-vegas-cosmetic-surgery,,,,,,,,
Levy Online,Your partner in digital marketing success,(702) 739-3082,https://www.sbdpro.com/business/levy-online,,,,,,,,
The Giuliani Law Firm,Probate Attorney Las Vegas,(702) 388-9800,https://www.sbdpro.com/business/the-giuliani-law-firm-probate-attorney-las-vegas,,,,,,,,
Kaptyn,Las Vegas transportation service,(800) 990-0417,https://www.sbdpro.com/business/kaptyn,,,,,,,,
Larkin Plumbing,Las Vegas Plumbing Contractor,(702) 979-3992,https://www.sbdpro.com/business/larkin-plumbing,,,,,,,,
Eastern Laptop Repair,Las Vegas Computer Repair,(702) 268-2680,https://www.sbdpro.com/business/eastern-laptop-repair,,,,,,,,
RADON LLC,"Elevating Your Brand, One Booth at a Time",(917) 463-3566,https://www.sbdpro.com/business/radon-llc,,,,,,,,
Las Vegas Medical Weight Loss Club,"Safe, affordable, physician-led semaglutide (Ozempic® Wegovy®) and tirzepatide",(702) 350-2220,https://www.sbdpro.com/business/las-vegas-medical-weight-loss-club,,,,,,,,
Virtue Recovery Center,Las Vegas addiction recovery center,(866) 607-0541,https://www.sbdpro.com/business/virtue-recovery-centerr,,,,,,,,
The Nevada Independent,Nevada journalists,(702) 670-0976,https://www.sbdpro.com/business/the-nevada-independent,,,,,,,,
Fremont Street Experience,,(702) 678-5600,https://www.sbdpro.com/business/fremont-street-experience,,,,,,,,
Preventative Diagnostic Center,Las Vegas radiologists,(702) 534-7900,https://www.sbdpro.com/business/preventative-diagnostic-center,,,,,,,,
Absolute Dental,Warm Springs Family Dentist,(702) 825-0270,https://www.sbdpro.com/business/absolute-dental-rainbow,,,,,,,,
Sci-Fi Wedding Chapel,Las Vegas Chapel,(702) 333-2121,https://www.sbdpro.com/business/sci-fi-wedding-chapel-las-vegas,,,,,,,,
Festival Turf Las Vegas,Las Vegas Artificial Grass Supplier,(844) 702-8873,https://www.sbdpro.com/business/festival-turf-las-vegas,,,,,,,,
Mitchell Empire Group LLC,Tier 1 Local Emerging Small Business,,,contact@mitchellpestsolutions.com,https://www.MitchellPestSolutions.com,,,,,,
Generation Iron Works,Tier 1 Local Emerging Small Business,,,GenerationIronWorks@outlook.com,https://www.GenerationIronWorks.com,,,,,,
National Screening LLC,Tier 1 Local Emerging Small Business,,,info@mynationalscreening.com,https://www.mynationalscreening.com,,,,,,
Distinctive Contractors LLC,Tier 1 Local Emerging Small Business,,,admin@distinctivecontractor.com,https://distinctivecontractorsllc.com,,,,,,
"Santacruz Paint and Drywall, LLC",Tier 1 Local Emerging Small Business,,,santacruzllclv@gmail.com,https://www.spdlv.com,,,,,,
"MyRxWallet, Inc",Tier 1 Local Emerging Small Business,,,info@myrxwallet.app,https://myrxwallet.app,,,,,,
DreamBuildGrow International LLC,Tier 1 Local Emerging Small Business,,,johnnymorales.go@gmail.com,https://www.JohnnyMorales.life,,,,,,
ELITE IT CORPORATION,Tier 1 Local Emerging Small Business,,,support@yourelitecrew.com,,,,,,,
"MCM Elevator Consulting Group, LLC",Tier 1 Local Emerging Small Business,,,info@mcmelevatorinspections.com,https://www.mcmelevatorinspections.com/,,,,,,
Earthwise Design,Tier 1 Local Emerging Small Business,,,jeffr@earthwise.design,,,,,,,
"Alfa Kings Construction & Management, LLC",Tier 1 Local Emerging Small Business,,,alfakings67@gmail.com,,,,,,,
ADL ECOCARE INC,Tier 1 Local Emerging Small Business,,,,https://www.millicare.com/las-vegas/,,,,,,
"ABR Consulting, LLC",Tier 1 Local Emerging Small Business,,,hello@guidedarrows.com,https://www.guidedarrows.com/,,,,,,
"Two Chickens , LLC",Tier 1 Local Emerging Small Business,,,somethintotacoboutlv@gmail.com,https://somethin-to-taco-bout.square.site/,,,,,,
DVK TRANSPORTS LLC,Tier 1 Local Emerging Small Business,,,dvktransports@yahoo.com,,,,,,,
"SECOND2NONE, LIMITED PARTNERSHIP",Tier 1 Local Emerging Small Business,,,farrell702howard@gmail.com,,,,,,,
"Park It Here, LLC",Tier 1 Local Emerging Small Business,,,sincityrvsafe@gmail.com,https://N/A,,,,,,
Your Brand Clothing Company,Tier 1 Local Emerging Small Business,,,info@uniforms2you.com,https://uniforms2you.com,,,,,,
Maribel Cuervo,Tier 1 Local Emerging Small Business,,,cuervobilingualservices@gmail.com,https://www.myinterpreter.help,1001 N. Richmond Ave.,Carson City,89703.0,Tier 1 Local Emerging Small Business,"[{'NAICS Code': '541930', 'Description': 'Translation and Interpretation Services', 'Capability': 'Spanish'}]",[]
Bradley Taylor LLC,Tier 1 Local Emerging Small Business,,,support@theblackpot702.com,https://theblackpot702.com/,8609 W. Sahara Avenue,Las Vegas,89117.0,Tier 1 Local Emerging Small Business,"[{'NAICS Code': '722320', 'Description': 'CATERS, CATERING SERVICE', 'Capability': ''}]",[]
Vegas Fire and Electric LLC,Tier 1 Local Emerging Small Business,,,vegasfireandelectric@gmail.com,,702 Gritty Garnet Ave,Las Vegas,89183.0,Tier 1 Local Emerging Small Business,"[{'NAICS Code': '238210', 'Description': 'Electrical Contractors and Other Wiring Installation Contractors', 'Capability': 'Electrical Contracting'}]",[]
KGH Corp,Tier 1 Local Emerging Small Business,,,shawn@weconnectnv.com,https://weconnectnv.com,6445 W Sunset Rd STE 172,Las Vegas,89118.0,Tier 1 Local Emerging Small Business,"[{'NAICS Code': '238210', 'Description': 'Electrical Contractors and Other Wiring Installation Contractors', 'Capability': ''}]",[]
GraffitiGone Pros,Tier 1 Local Emerging Small Business,,,GraffitiGonepros@gmail.com,,4339 Sunrise Shores Ave,North Las Vegas,89031.0,Tier 1 Local Emerging Small Business,"[{'NAICS Code': '561790', 'Description': 'Other services to buildings and dwellings', 'Capability': 'Ability to provide graffiti removal services using eco-friendly friendly solutions to bare brick, concrete, asphalt, tile, glass or metals. Capable of providing paint matching paint-over to painted surfaces that include stucco, siding, brick, wood and metals. To include protection of exterior painted murals with UV protection, consolidation, weatherproofing.'}]",[]
Nevada Presort Corporation,Tier 2 Local Emerging Small Business,,,info@nvpresort.com,https://www.nvpresort.com,1560 Hymer Ave,Sparks,89431.0,Tier 2 Local Emerging Small Business,"[{'NAICS Code': '541860', 'Description': 'Direct Mail Advertising', 'Capability': 'Presort mail, courier service and Mail Prodiction'}]",[]
CovInnovations Inc.,Tier 1 Local Emerging Small Business,,,jjones@covinnovations.com,https://www.covinnovations.com,3012 South Durango Drive,Las Vegas,89117.0,Tier 1 Local Emerging Small Business,"[{'NAICS Code': '541715', 'Description': 'Research and Development in the Physical, Engineering, and Life Sciences (except Nanotechnology and Biotechnology)', 'Capability': 'Pharmaceutical manufacturer'}]",[]
Lucky Pua LLC,Tier 1 Local Emerging Small Business,,,myluckypua@gmail.com,https://myluckypua.com,4255 Dean Martin Drive,Las Vegas,89103.0,Tier 1 Local Emerging Small Business,"[{'NAICS Code': '445298', 'Description': 'All Other Specialty Food Retailers', 'Capability': 'Nonstore direct selling establishment selling imported products directly to businesses in Nevada. The products that we sell range in variety, and we primarily focus on products for the food and beverage industry and events.'}]",[]
Porschea Palmer,Tier 1 Local Emerging Small Business,,,risingsblogistics@gmail.com,https://www.handyrequest.com,8490 barossa court,Las Vegas,89117.0,Tier 1 Local Emerging Small Business,"[{'NAICS Code': '541611', 'Description': 'Administrative Management and General Management Consulting Services', 'Capability': 'B2b in building business assistance for B2C -  Business consulting, administrative assistance, lead generation'}]",[]
"Minion Works, LLC",Tier 1 Local Emerging Small Business,,,,https://minionworksllc.com,769 country view ct,Reno,89506.0,Tier 1 Local Emerging Small Business,"[{'NAICS Code': '541922', 'Description': 'Commercial photography services', 'Capability': 'HDR Photography, aerial Photography'}]",[]
Lewis Premier Solar Cleaning LLC,Tier 1 Local Emerging Small Business,,,lewispremiersc@gmail.com,https://lewispremiersc.com,5200 Yellow Dawn Ct.,Las Vegas,89130.0,Tier 1 Local Emerging Small Business,"[{'NAICS Code': '561720', 'Description': 'Janitorial Services', 'Capability': 'Commercial & residential solar panel cleaning, commercial & residential window cleaning, artificial turf cleaning'}]",[]
Zen National Corporation,Tier 1 Local Emerging Small Business,,,support@zenational.com,https://www/zenational.com,302 E Carson Ave  Floor 10th  Ste 1009,Las Vegas,89101.0,Tier 1 Local Emerging Small Business,"[{'NAICS Code': '541511', 'Description': 'Custom Computer Programming Services', 'Capability': 'software design&implementation, server hardware configuration and integration, server hardware component sales'}]",[]
Morgan Massie,Tier 1 Local Emerging Small Business,,,info@leadershipandtrainingconcierge.com,https://www.leadershipandtrainingconcierge.com,10580 N. McCarran Blvd. Suite 115-371,Reno,89523.0,Tier 1 Local Emerging Small Business,"[{'NAICS Code': '611430', 'Description': 'Professional and Management Development Training', 'Capability': 'To provide training and development services to help individuals and organizations improve their skills and knowledge in various areas of professional and management practices.  This business capability involves offering a wide range of short-duration courses, seminars, workshops, and training programs that are designed to enhance the capabilities and competencies of managers, executives, professionals, and employees in various industries.  The specific capabilities offered by a business that operates under this NAICS code may include providing customized training and consulting services, developing training materials and resources, designing and delivering e-learning solutions, and offering coaching and mentoring programs. The ultimate goal is to help organizations and individuals improve their performance and achieve their strategic objectives by enhancing their knowledge and skills in areas such as leadership, communication, project management, strategic planning, and other professional and management competencies.'}]",[]
Sober Testing Services LLC,Tier 1 Local Emerging Small Business,,,Justin@sobertestingservices.com,https://www.sobertestingservices.com,1018 E Sahara Ave,Las Vegas,89104.0,Tier 1 Local Emerging Small Business,"[{'NAICS Code': '621511', 'Description': 'Laboratory Testing Services, Medical (except radiological, X-ray)', 'Capability': 'Collection and chemical analysis of urine samples for the detection of drug and alcohol usage'}]",[]
"R.A.M.S.S, LLC",Tier 1 Local Emerging Small Business,,,ramss@ramssnv.com,https://www.ramssnv.com,3560 West Cheyenne Avenue,Las Vegas,89032.0,Tier 1 Local Emerging Small Business,"[{'NAICS Code': '561612', 'Description': 'Security Guards and Patrol Services', 'Capability': 'Security Patrol'}]",[]
Mello Hess Investments LLC,Tier 1 Local Emerging Small Business,,,summerlin@acehandymanservices.com,https://www.acehandymanservices.com/offices/summerlin,"8689 W. Sahara Ave., Suite 250",Las Vegas,89117.0,Tier 1 Local Emerging Small Business,"[{'NAICS Code': '236118', 'Description': 'Residential Remodelers', 'Capability': 'Drywall repair, door repair and replacement, window repair and replacement, renovation, small jobs, carpentry, maintenance'}]",[]
"Crown Fabricators, LLC",Tier 2 Local Emerging Small Business,,,joe@crownfabricators.com,https://CrownFabricators.com,3850 Pioneer Ave.,Las Vegas,89102.0,Tier 2 Local Emerging Small Business,"[{'NAICS Code': '332312', 'Description': 'Fabricated Structural Metal Manufacturing', 'Capability': 'structural metal manufacturing'}]",[]
Sugar and Spice Las Vegas,Tier 1 Local Emerging Small Business,,,sales@sugarandspicelasvegas.com,https://sugarandspicelasvegas.com/,"3 Sunset Way, Suite A-14",Henderson,89014.0,Tier 1 Local Emerging Small Business,"[{'NAICS Code': '311991', 'Description': 'Perishable Prepared Food Manufacturing', 'Capability': 'Candy Manufacturing'}]",[]
"Infinite Rizzdom, LLC",Tier 1 Local Emerging Small Business,,,rrizzi@infiniterizzdom.com,https://infiniterizzdom.com,4032 Beech Fern Ave,North Las Vegas,89084.0,Tier 1 Local Emerging Small Business,"[{'NAICS Code': '611710', 'Description': 'Educational Services', 'Capability': 'Wellness Programs & Coaching'}]",[]
Lion’s Den Consulting LLC,Tier 1 Local Emerging Small Business,,,dwilson@thewilsonheritage.com,https://www.lionsdenconsult.com,6228 Farica St.,North Las Vegas,89081.0,Tier 1 Local Emerging Small Business,"[{'NAICS Code': '541611', 'Description': 'Administrative Management and General Management Consulting Services', 'Capability': 'Business Consulting'}]",[]
Technical Medical LLC,Tier 1 Local Emerging Small Business,,,,https://www.techmed-ems.com,898 Maestro Dr. Suite 101,Reno,89511.0,Tier 1 Local Emerging Small Business,"[{'NAICS Code': '621910', 'Description': 'Ambulance Services', 'Capability': 'ALS, BLS, CCT Ambulance'}]",[]
Switchback Engineering LLC,Tier 1 Local Emerging Small Business,,,info@switchbackeng.com,https://www.switchbackeng.com,10040 Sweet Oleander Ave,Las Vegas,89149.0,Tier 1 Local Emerging Small Business,"[{'NAICS Code': '541330', 'Description': 'Engineering Services', 'Capability': 'Civil Engineering'}]",[]
Travis Kunz,Tier 1 Local Emerging Small Business,,,tueborinfo@gmail.com,https://tueborsecurity.com,825 Sienna Park Dr,Reno,89512.0,Tier 1 Local Emerging Small Business,"[{'NAICS Code': '561612', 'Description': 'Security Guard Services', 'Capability': 'Providing a uniformed security guard to a business'}]",[]
Olivo Architecture PC,Tier 1 Local Emerging Small Business,,,info@olivoarchitecture.com,https://www.olivoarchitecture.com,1736 Hill Canyon LN,Las Vegas,89144,Tier 1 Local Emerging Small Business,"[{'NAICS Code': '541310', 'Description': 'Architectural Services', 'Capability': 'Architecture'}]",[]
Business Process Automation Company,Tier 1 Local Emerging Small Business,,,,,9012 Litchfield Ave,Las Vegas,89134,Tier 1 Local Emerging Small Business,"[{'NAICS Code': '541611', 'Description': 'Administrative Management and General Management Consulting Services', 'Capability': ''}]",[]
Earthworks Grading and Paving LLC,Tier 1 Local Emerging Small Business,,,info@earthworksgradingandpaving.com,https://Www.earthworksgradingandpaving.com,5081 n pioneer way  Unit C,Las Vegas,LAs Vegas,Tier 1 Local Emerging Small Business,"[{'NAICS Code': '237990', 'Description': 'Other Heavy and Civil Engineering Construction', 'Capability': ''}]",[]
"Shield Of Valor Executive Protection, LLC",Tier 1 Local Emerging Small Business,,,valorelite21@gmail.com,https://shieldofvalorexecutiveprotecti.godaddysites.com/,5250 Stewart Ave Apt 1050,Las Vegas,89110,Tier 1 Local Emerging Small Business,"[{'NAICS Code': '561612', 'Description': 'Security Guards and Patrol Services', 'Capability': 'Private Security services'}]",[]
Blue Sands Creations LLC,Tier 1 Local Emerging Small Business,,,,https://bluesandscreations.com,212 DePaul Court,Las Vegas,89144,Tier 1 Local Emerging Small Business,"[{'NAICS Code': '541614', 'Description': 'Process, Physical Distribution, and Logistics Consulting Services', 'Capability': 'unlimited'}]",[]
AJ Transport LLC,Tier 1 Local Emerging Small Business,,,ajconsulting.nv@gmail.com,https://www.ajconsultingnv.com,"11500 S. Eastern Ave, Ste 150",Henderson,89052,Tier 1 Local Emerging Small Business,"[{'NAICS Code': '561720', 'Description': 'JANITORIAL', 'Capability': ''}]",[]
S.Y.S Photographix LLC,Tier 1 Local Emerging Small Business,,,,https://www.sysphotographix.com,1806 Viaggio Ave,North Las Vegas,89081,Tier 1 Local Emerging Small Business,"[{'NAICS Code': '541810', 'Description': 'Advertising Agencies', 'Capability': 'embroidery, screen printing, graphic design, photography, promotional products, printing services'}]",[]
RIGHT NOW PRODUCTS & SERVICES LLC,Tier 1 Local Emerging Small Business,,,,,9010 Sheep Ranch Ct,Las Vegas,89143,Tier 1 Local Emerging Small Business,"[{'NAICS Code': '455219', 'Description': 'All Other General Merchandise Retailers', 'Capability': 'RIGHT NOW PRODUCTS & SERVICES LLC'}]",[]
Artius,Tier 2 Local Emerging Small Business,,,sales@artiusit.com,https://artiusit.com,6605 Grand Montecito Pkwy #100,Las Vegas,89149,Tier 2 Local Emerging Small Business,"[{'NAICS Code': '541611', 'Description': 'Administrative Management and General Management Consulting Services', 'Capability': 'Information Technology solutions provider'}]",[]
Skyline Moving Service LLC,Tier 1 Local Emerging Small Business,,,email@skylinemovingservice.com,https://www.skylinemovingservice.com,"7582 Las Vegas Blvd S, #184",Las Vegas,89123,Tier 1 Local Emerging Small Business,"[{'NAICS Code': '484210', 'Description': 'Used Household and Office Goods Moving.', 'Capability': 'Local & Long Distance moving, packing, loading, unloading, and delivery.'}]",[]
"Aria Landscape Architecture, LLC",Tier 1 Local Emerging Small Business,,,,,1813 Blackhawk Rd.,Las Vegas,89108,Tier 1 Local Emerging Small Business,"[{'NAICS Code': '541320', 'Description': 'Landscape Architectural Services', 'Capability': ''}]",[]
D&P Holding LLC,Tier 1 Local Emerging Small Business,,,daniel@reachcorporation.com,https://www.rechcorporation.com,759 Cambridge Crest Court CT,Las Vegas,89123,Tier 1 Local Emerging Small Business,"[{'NAICS Code': '236118', 'Description': 'Residential Remodelers Electrical apparatus ad equipment, wiring supplies and related equipment merchant wholesalers, Other services buildings and dwellings', 'Capability': '$2.5 Milion'}]",[]
Atlas automotive llc,Tier 1 Local Emerging Small Business,,,atlasautomotivenv@gmail.com,https://Atlasautomotivenv.com,564 e Silverado ranch blv,Las Vegas,89183,Tier 1 Local Emerging Small Business,"[{'NAICS Code': '811111', 'Description': 'General Automotive Repair', 'Capability': 'Garages - Engine and transmission replacement, preventative maintenance, scheduled maintenance, flush and replace all engine/transmission fluids, all electrical harness and wiring repair and replacement, suspension repair and modification, engine and electrical diagnostics, window tint, car seat installation for baby carrier bases and toddler seats, oil changes, brakes and brake pad replacement, brake fluid flush, brake line replacement and repair, all auto accessory installation, this is a full automotive repair shop for all makes and models of gas engines, and most diesel engines (not equipped for semi trucks).'}]",[]
"Avail Enterprises, LLC",Tier 1 Local Emerging Small Business,,,,,"1855 Sullivan Lane, Suite 245",Sparks,89434,Tier 1 Local Emerging Small Business,"[{'NAICS Code': '236220', 'Description': 'Commercial and Institutional Building Construction', 'Capability': 'General Contracting'}]",[]
Icon Speech & Language Therapy,Tier 1 Local Emerging Small Business,,,,https://www.iconslp.com,1703 Lakeside Drive,Reno,89509,Tier 1 Local Emerging Small Business,"[{'NAICS Code': '621340', 'Description': 'Offices of Physical, Occupational and Speech Therapists, and Audiologists', 'Capability': 'speech therapy'}]",[]
Plus Ultra Transport,Tier 1 Local Emerging Small Business,,,,https://plusultratransport.com/,2850 W. Horizon Ridge Pkwy Suite 200,Henderson,89052,Tier 1 Local Emerging Small Business,"[{'NAICS Code': '423860', 'Description': 'Transportation Equipment and Supplies (except Motor Vehicle) Merchant Wholesalers', 'Capability': 'Transportation & Logistics - Commercial Real Estate Acquisitions'}]",[]
Inspire By Design LLC,Tier 1 Local Emerging Small Business,,,gina@ibdpromo.com,https://www.ibdpromo.com,2321 Gondi Castle Avenue,Henderson,89044,Tier 1 Local Emerging Small Business,"[{'NAICS Code': '541890', 'Description': 'Other Services Related to Advertising', 'Capability': 'Uniforms Screen Print Embroidery Promotional items'}]",[]
Hilapro Holdings LLC,Tier 1 Local Emerging Small Business,,,contact@renotahoerentalcar.com,https://www.renotahoerentalcar.com,1755 E PLUMB LN STE 168,Reno,89502,Tier 1 Local Emerging Small Business,"[{'NAICS Code': '532111', 'Description': 'Car Rental', 'Capability': ''}]",[]
Pride Enterprise LLC,Tier 1 Local Emerging Small Business,,,info@ipridenotary.com,https://www.ipridenotary.com,8430 W Lake Mead Blvd Ste 135,Las Vegas,89128,Tier 1 Local Emerging Small Business,"[{'NAICS Code': '561611', 'Description': 'Fingerprint services', 'Capability': 'Fingerprinting &Background Checks'}]",[]
"Captions Unlimited of Nevada, Inc",Tier 2 Local Emerging Small Business,,,scheduling@captionsunlimited.com,https://www.captionsunlimited.com,1533 Diamond Country Drive,"Reno, Nevada",89521,Tier 2 Local Emerging Small Business,"[{'NAICS Code': '541930', 'Description': 'Translation and Interpretation Services', 'Capability': ''}]",[]
Daniel Charron,Tier 1 Local Emerging Small Business,,,info@balloonproslasvegas.com,https://www.balloonproslasvegas.com,250 Promenade Pl #115,Las Vegas,89106,Tier 1 Local Emerging Small Business,"[{'NAICS Code': '711510', 'Description': 'Independent Artists, Writers, and Performers', 'Capability': 'Artistic balloon creations for all types of events'}]",[]
Skybound Ventures LLC,Tier 1 Local Emerging Small Business,,,jenniferdice7@gmail.com,https://tempwallsystems.com/locations/las-vegas/,2900 Suzette Ct,Henderson,89044,Tier 1 Local Emerging Small Business,"[{'NAICS Code': '532412', 'Description': 'Construction, Mining, and Forestry Machinery and Equipment Rental and Leasing', 'Capability': 'provider of modular containment solutions for occupied construction and renovation projects. I am excited to introduce you to our innovative approach that simplifies construction containment while ensuring the utmost convenience, safety, and efficiency for your projects.'}]",[]
RV Concrete LLC,Tier 1 Local Emerging Small Business,,,rvconcrete77@gmail.com,https://N/A,4317 Lindsey Circle,Las Vegas,89130,Tier 1 Local Emerging Small Business,"[{'NAICS Code': '237310', 'Description': 'Highway, Street, and Bridge Construction', 'Capability': 'Concrete paving'}]",[]
"Aloha Xpress Medical, LLC",Tier 1 Local Emerging Small Business,,,,,4510 S Eastern Ave ste 9,Las Vegas,89119,Tier 1 Local Emerging Small Business,"[{'NAICS Code': '621511', 'Description': 'Medical Laboratories', 'Capability': ''}]",[]
Olympus Lighting LLC,Tier 1 Local Emerging Small Business,,,accounting@olympuslighting.com,https://www.olympuslighting.com,5725 S. Valley View Blvd. Suite 7,Las Vegas,89118,Tier 1 Local Emerging Small Business,"[{'NAICS Code': '423220', 'Description': 'Lamps Merchant Wholesalers', 'Capability': ''}]",[]
"JKW Consulting, LLC",Tier 1 Local Emerging Small Business,,,,https://techsmartlv.com,4045 S. Buffalo Drive Suite A101-263,Las Vegas,89147,Tier 1 Local Emerging Small Business,"[{'NAICS Code': '236118', 'Description': 'Residential Remodelers', 'Capability': 'SmartHome Tech'}]",[]
HyMAX Development Corporation,Tier 1 Local Emerging Small Business,,,d.daye@hymaxdevcorp.com,https://www.hymaxdevcorp.com,3111 S Valley View Blvd Ste B212,Las Vegas,89102,Tier 1 Local Emerging Small Business,"[{'NAICS Code': '541519', 'Description': 'Other Computer Related Services', 'Capability': 'desktops, workstations, laptops, servers, high performance systems, netbooks, pico/single-board systems'}]",[]
Queendom Cultivation LLC,Tier 2 Local Emerging Small Business,,,jazz@queendomcultivation.com,https://queendomcultivation.com,"8450 West Sahara Avenue, suite 109-110",Las Vegas,89117,Tier 2 Local Emerging Small Business,"[{'NAICS Code': '459999', 'Description': 'Miscellaneous Retailer', 'Capability': 'Retail/E-commerce'}]",[]
MarPhil LLC,Tier 1 Local Emerging Small Business,,,phillip@marphil.us,https://marphil.us,10460 Ashlar Point Way,Las Vegas,89135,Tier 1 Local Emerging Small Business,"[{'NAICS Code': '541511', 'Description': 'Custom Computer Programming Services', 'Capability': ''}]",[]
"Copperhead Electric, LLC",Tier 1 Local Emerging Small Business,,,traci@copperheadelectricnv.com,,2705 Langlade Ave,Henderson,89052,Tier 1 Local Emerging Small Business,"[{'NAICS Code': '238210', 'Description': 'Electrical & Wiring', 'Capability': '$300,000'}]",[]
Common Nomad,Tier 1 Local Emerging Small Business,,,,,9450 W Hacienda Ave,Las vegas,89148,Tier 1 Local Emerging Small Business,"[{'NAICS Code': '541611', 'Description': 'Strategic planning consulting services', 'Capability': 'campaign planning'}]",[]
EVERGREEN CO. LLC,Tier 1 Local Emerging Small Business,,,lawnservicesevergreen@gmail.com,https://www.evergreenlawnservices20.com,500 N. RAINBOW BLVD SUITE # 300,LAS VEGAS,89107,Tier 1 Local Emerging Small Business,"[{'NAICS Code': '561730', 'Description': 'Landscape maintenance and cleanup', 'Capability': 'Focus on providing landscape services for commercial and residential properties.'}]",[]
HeavyFoot Weight LLC.,Tier 1 Local Emerging Small Business,,,,https://heavyfootweight.com/,11564 Anthem Dr.,Sparks,89441,Tier 1 Local Emerging Small Business,"[{'NAICS Code': '332510', 'Description': 'Hardware Manufacturing', 'Capability': 'Anchoring service'}]",[]
USA Doors,Tier 1 Local Emerging Small Business,,,,https://www.usadoorslv.com,10080 Placid St,Las Vegas,89183,Tier 1 Local Emerging Small Business,"[{'NAICS Code': '238000', 'Description': 'Specialty Contractor', 'Capability': ''}]",[]
"BRAND Architecture, LLP",tier_one,,,brian.miller@brand-archlv.com,https://www.brand-archlv.com,9661 Bella Citta St,Las Vegas,89178,tier_one,"[{'NAICS Code': '541310', 'Description': 'Architectural Services', 'Capability': 'Building architectural design services'}]",[]
"Ascenditure, Ltd.",Tier 1 Local Emerging Small Business,,,chris@ascenditure.co,https://www.ascenditure.co/,300 W. Arroyo St.,Reno,89509,Tier 1 Local Emerging Small Business,"[{'NAICS Code': '541613', 'Description': 'Marketing Consulting Services', 'Capability': 'Ascenditure provides full digital marketing and advertising capabilities. We are certified in all the major advertising platforms, as well as CRM platforms like HubSpot.'}]",[]
"ASL Training, LLC",Tier 1 Local Emerging Small Business,,,f.cafferata@asltraining.com,https://www.asltraining.com,"760 Mays Blvd, 15-D",Incline Village,89451,Tier 1 Local Emerging Small Business,"[{'NAICS Code': '611430', 'Description': 'Continuing education online learning marketplace services (through a website or mobile application)', 'Capability': 'Online courses'}]",[]
"Graphix Gearwerks, LLC",Tier 1 Local Emerging Small Business,,,info@ggwerks.com,https://www.ggwerks.com,"4310 Losee Road, Suite 9",North Las Vegas,89030,Tier 1 Local Emerging Small Business,"[{'NAICS Code': '541850', 'Description': 'Outdoor Advertising', 'Capability': 'Printing and Vinyl Installation'}]",[]
"Uprise, LLC",Tier 1 Local Emerging Small Business,,,info@uprisefiber.com,https://uprisefiber.com,1150 Matley Lane,Reno,89502,Tier 1 Local Emerging Small Business,"[{'NAICS Code': '51711', 'Description': 'Internet Service Provider', 'Capability': 'Fiber Internet Design, Construction, Operations.'}]",[]
Travis Fosse LLC,Tier 1 Local Emerging Small Business,,,,https://Vegaslife702.com,8319 Rockefeller Street,Las Vegas,89123,Tier 1 Local Emerging Small Business,"[{'NAICS Code': '322230', 'Description': 'Office supplies, die-cut paper, made from purchased paper or paperboard', 'Capability': ''}]",[]
LEE MAJOR & ASSOCIATES LTD,Tier 1 Local Emerging Small Business,,,HELPME@INCOMETAXANDNOTARY.COM,https://INCOMETAXANDNOTARY.COM,4100 W FLAMINGO ROAD UNIT 1442,LAS VEGAS,89103,Tier 1 Local Emerging Small Business,"[{'NAICS Code': '541213', 'Description': 'TAX PREPARATION  SERVICES', 'Capability': 'INCOME TAX AND BOOKKEEPING'}]",[]
The Empowerment Agency LLC,Tier 1 Local Emerging Small Business,,,,https://theempowermentagency.org,6812 Via Locanda Ave,Las Vegas,89131,Tier 1 Local Emerging Small Business,"[{'NAICS Code': '541611', 'Description': 'Administrative Management and General Management Consulting Services', 'Capability': 'Grant Writing and Strategic Planning'}]",[]
"IMI-NV Management, LLC",Tier 1 Local Emerging Small Business,,,info@inmyimagetherapeutics.com,https://www.inmyimagetherapeutics.com,303 S Water St. Suite 200,Henderson,89015,Tier 1 Local Emerging Small Business,"[{'NAICS Code': '561110', 'Description': 'Office Administrative Services', 'Capability': ''}]",[]
"Sunpoint Specialties, LLC",Tier 1 Local Emerging Small Business,,,,https://www.sunpointspecialtiesllc.com,"3060 N Nellis Blvd., Suite 15",Las Vegas,89115,Tier 1 Local Emerging Small Business,"[{'NAICS Code': '238390', 'Description': 'Other Building Finishing Contractors', 'Capability': 'Toilet Partitions and Toilet Accessories, Wall Protection, Fire Extinguisher & Cabinets, Lockers, Cubicle Curtain and Track, Visual Display Boards, Misc Specialties'}]",[]
"Hazel Consulting, LLC",Tier 1 Local Emerging Small Business,,,,,148 Snake Rd,Dayton,89403,Tier 1 Local Emerging Small Business,"[{'NAICS Code': '541512', 'Description': 'Computer Systems Design Services', 'Capability': 'Quality Assurance, Data Conversion, Project Management'}]",[]
The Speech School LLC,Tier 1 Local Emerging Small Business,,,christine@thespeechschool.com,https://www.thespeechschool.com,2545 S. Torrey Pines Drive unit B,Las Vegas,89146,Tier 1 Local Emerging Small Business,"[{'NAICS Code': '621340', 'Description': 'Offices of Physical, Occupational and Speech Therapists, and Audiologists', 'Capability': 'Speech Therapy'}]",[]
Providers International 702 LLC,Tier 1 Local Emerging Small Business,,,,https://www.providers-international.com,3475 W. Ford Ave,Las Vegas,89139,Tier 1 Local Emerging Small Business,"[{'NAICS Code': '561612', 'Description': 'Security Guards and Patrol Services', 'Capability': 'Unarmed and armed site security'}]",[]
CPS Tech Inc.,Tier 1 Local Emerging Small Business,,,jenn@cpspcb.com,https://cpspcb.com,7345 S Durango Dr Bldg B 107,Las Vegas,89113,Tier 1 Local Emerging Small Business,"[{'NAICS Code': '334412', 'Description': 'Bare Printed Circuit Board Manufacturing', 'Capability': ''}]",[]
Mazao Consultancy Agency L.L.C.,Tier 1 Local Emerging Small Business,,,mazaoca.us@gmail.com,,5150 Mae Anne Ave STE 405,Reno,89523,Tier 1 Local Emerging Small Business,"[{'NAICS Code': '541611', 'Description': 'Administrative Management and General Management Consulting Services', 'Capability': ''}]",[]
Periwinkle Group,Tier 1 Local Emerging Small Business,,,info@periwinklegroup.com,https://www.periwinklegroup.com,"2755 E Desert Inn Rd, Unit 155",Las Vegas,89121,Tier 1 Local Emerging Small Business,"[{'NAICS Code': '541613', 'Description': 'Marketing Consulting Services', 'Capability': 'Marketing, Public Relations Advertising'}]",[]
Hagerty Forestry Management LLC,Tier 1 Local Emerging Small Business,,,contact@hagertyforestry.com,https://hagertyforestry.com,7681 RHYTHM CIR,SPARKS,89436,Tier 1 Local Emerging Small Business,"[{'NAICS Code': '115310', 'Description': 'Support Activities of Forestry', 'Capability': 'Tree trimming, timber falling, defensible space, mastication, land clearing, fire cleanup'}]",[]
REPLEC Document & Digital Solutions,Tier 1 Local Emerging Small Business,,,cecilia@replec.com,https://www.replec.com,330 East Charleston Blvd. Suite 201A,Las Vegas,89104,Tier 1 Local Emerging Small Business,"[{'NAICS Code': '561439', 'Description': 'Other Business Service Centers (including Copy Shops)', 'Capability': 'Photocopying and Duplicating Services'}]",[]
"NEVCAS, LLC",Tier 1 Local Emerging Small Business,,,acast@nevcas.com,,811 CRABAPPLE DR,Henderson,89002,Tier 1 Local Emerging Small Business,"[{'NAICS Code': '339920', 'Description': 'Sports and Recreational Equipment', 'Capability': 'Provide various sports and recreational equipment to government agencies according to relevant solicitations.'}]",[]
MoonFyre Professional Services LLC,Tier 1 Local Emerging Small Business,,,cdickstein@moonfyre.net,https://moonfyre.net/,7416 Hawk Shadow Ave.,Las Vegas,89113,Tier 1 Local Emerging Small Business,"[{'NAICS Code': '561320', 'Description': 'Temporary Help Services', 'Capability': ''}]",[]
Gordian Imports LLC,Tier 1 Local Emerging Small Business,,,,,671 Patti Ann Woods Drive,Henderson,89002,Tier 1 Local Emerging Small Business,"[{'NAICS Code': '425120', 'Description': 'Wholesale Trade Agents & Brokers', 'Capability': 'Focused on military and law enforcement equipment, including ammunition, night vision gear, body armor, and medical supplies.'}]",[]
RSD Nevada LLC,Tier 1 Local Emerging Small Business,,,readysetdisinfect@outlook.com,https://www.readysetdisinfect.com,304 S Jones Blvd #3249,Las Vegas,89107,Tier 1 Local Emerging Small Business,"[{'NAICS Code': '561720', 'Description': 'Disinfecting Services', 'Capability': 'From Small to Large Buildings'}]",[]
"Southern Desert Construction and Supply, LLC",Tier 1 Local Emerging Small Business,,,william@sdcsus.com,https://www.sdcsus.com,4071 Russian Rider Drive,Las Vegas,89122,Tier 1 Local Emerging Small Business,"[{'NAICS Code': '423610', 'Description': 'Equipment, Wiring Supplies, and Related Equipment Merchant Wholesalers', 'Capability': 'Construction materials, electrical, merchant wholesalers'}]",[]
Big Fairy Tales LLC,Tier 1 Local Emerging Small Business,,,Hi@BigFairyTales.com,https://BigFairyTales.com,"8400 W. Sunset Rd., Ste. 300",Las Vegas,89113,Tier 1 Local Emerging Small Business,"[{'NAICS Code': '453210', 'Description': 'Office Supplies and Educational Supplies Retailer', 'Capability': 'Office Supplies and Educational Supplies Retailer'}]",[]
Kodagenix,Tier 1 Local Emerging Small Business,,,sharab.ahmad@kodagenix.com,https://Kodagenix.com,1609 Freeport Blvd,Sparks,89431,Tier 1 Local Emerging Small Business,"[{'NAICS Code': '325412', 'Description': 'Pharmaceutical Preparation Manufacturing', 'Capability': 'sports and health supplement manufacturing'}]",[]
"Solidarity Mental Health Services, LLC",Tier 1 Local Emerging Small Business,,,solidaritymentalhealth@gmail.com,https://Solidaritymentalhealthservices.com (in development),505 S. Arlington Ave Ste 203,Reno,89509-1504,Tier 1 Local Emerging Small Business,"[{'NAICS Code': '621112', 'Description': 'Offices of Physicians, Mental Health Specialists', 'Capability': 'Psychiatric mental health services'}]",[]
Moody’s Auto Glass LLC,Tier 1 Local Emerging Small Business,,,,,7625 Moore Creek ln,North Las Vegas,89084,Tier 1 Local Emerging Small Business,"[{'NAICS Code': '811111', 'Description': 'General Automotive Repair', 'Capability': 'Mobile automotive and truck repair services'}]",[]
"Total Land Solutions, LLC",Tier 2 Local Emerging Small Business,,,contactus@cleangreenlandscapelv.com,https://cleangreenlandscapelv.com/,3526 E Patrick Ln,Las Vegas,89120,Tier 2 Local Emerging Small Business,"[{'NAICS Code': '561730', 'Description': 'Landscaping Services', 'Capability': 'Installing Pavers, Turf, Rock, Demo, Maintaining landscapes'}]",[]
HAUTLAW LLC,Tier 2 Local Emerging Small Business,,,,https://www.vegasthrills.com,250 S. Moapa Valley Blvd.,Overton,89040,Tier 2 Local Emerging Small Business,"[{'NAICS Code': '441227', 'Description': 'ATV Rentals', 'Capability': 'ATV and Recreation Vehicles'}]",[]
Devra Wexler,Tier 1 Local Emerging Small Business,,,exhibitsengage@gmail.com,https://(not yet launched) www.exhibitsengage.com,8925 Chipshot Trail,Reno,89523,Tier 1 Local Emerging Small Business,"[{'NAICS Code': '711510', 'Description': 'Independent Artists, Writers, and Performers', 'Capability': 'This industry comprises independent (i.e., freelance) individuals primarily engaged in performing in artistic productions, in creating artistic and cultural works or productions, or in providing technical expertise necessary for these productions.  Illustrative Examples: Ghost writers, independent Writers, independent (freelance) Independent museum exhibit designers. Writing and editing interpretive content for zoos, aquariums, and botanical gardens. This can include developing interpretive content for state and local parks, nature centers, etc.'}]",[]
"Best in the West Safety, Inc.",Tier 1 Local Emerging Small Business,,,dhale@biwsafety.com,https://www.BIWSafety.com,820 S. Valley View Blvd,Las Vegas,89107,Tier 1 Local Emerging Small Business,"[{'NAICS Code': '541620', 'Description': 'Environmental Consulting Services', 'Capability': 'Professional environmental  services'}]",[]
"IDEATE Collaborative, LLC",Tier 1 Local Emerging Small Business,,,tracy@ideatecollaborative.com,https://www.ideatecollaborative.com,6275 Katella Ave,Las Vegas,89118,Tier 1 Local Emerging Small Business,"[{'NAICS Code': '611430', 'Description': 'Education Services', 'Capability': 'Diversity and Inclusion Training and Development'}]",[]
"LANGE PLUMBING, LLC",Tier 2 Local Emerging Small Business,,,service@langeplumbing.com,https://www.langeplumbing.com,"7121 W. Craig Rd, SUITE 113-312",Las Vegas,89129,Tier 2 Local Emerging Small Business,"[{'NAICS Code': '238220', 'Description': 'Plumbing, Heating, and Air-Conditioning Contractors', 'Capability': 'Commercial and Residential Plumbing and Fire Sprinklers'}]",[]
True Peace Therapy Services LLC,Tier 1 Local Emerging Small Business,,,hello@truepeacetherapy.com,https://www.truepeacetherapy.com,1180 N Town Center Dr Suite 100,Las Vegas,89144,Tier 1 Local Emerging Small Business,"[{'NAICS Code': '621420', 'Description': 'Mental Health Centers and Clinics, Outpatient', 'Capability': ''}]",[]
Double A Investments LLC,Tier 1 Local Emerging Small Business,,,henderson@optic-kleer.com,https://optic-kleer.com/henderson,7031 Misty Shore St.,North Las Vegas,89086,Tier 1 Local Emerging Small Business,"[{'NAICS Code': '811122', 'Description': 'Automotive Glass Replacement Shops', 'Capability': 'Mobile Automotive Glass repair & replacement w ADAS Calibrations.'}]",[]
Richardson Wetzel Architects LLC,Tier 1 Local Emerging Small Business,,,hello@rwa-design.com,https://www.rwa-design.com,4300 E. Sunset Road,Henderson,89014,Tier 1 Local Emerging Small Business,"[{'NAICS Code': '541310', 'Description': 'Architectural Services', 'Capability': ''}]",[]
GYC Vegas LLC,Tier 1 Local Emerging Small Business,,,info@gycvegas.com,https://gycvegas.com,1346 Tempo St.,Henderson,89052,Tier 1 Local Emerging Small Business,"[{'NAICS Code': '541820', 'Description': 'Public Relations Agencies', 'Capability': ''}]",[]
"BeezleBug Bit, LLC",Tier 1 Local Emerging Small Business,,,,http://lee-lanier-paints.com,"107 E. Charleston Blvd, #160",Las Vegas,89104,Tier 1 Local Emerging Small Business,"[{'NAICS Code': '711510', 'Description': 'Independent Artists, Writers, and Performers', 'Capability': 'Portrait and mural painting'}]",[]
Total Promotion Company,Tier 1 Local Emerging Small Business,,,sales@thetpc.us,https://www.totalpromotioncompany.com,520 W Sunset Rd #12,Henderson,89011,Tier 1 Local Emerging Small Business,"[{'NAICS Code': '323113', 'Description': 'Commercial Screen Printing', 'Capability': ''}]",[]
TechCity Electric LLC,Tier 1 Local Emerging Small Business,,,info@techcityelectric.com,https://techcityelectric.com,880 Cottonwood LN,Fernley,89408,Tier 1 Local Emerging Small Business,"[{'NAICS Code': '238210', 'Description': 'Electrical Contractors and Other Wiring Installation Contractors', 'Capability': 'Electrical Contracting - industrial, commercial, residential electrical'}]",[]
"The Leading Edge Group, Inc.",Tier 1 Local Emerging Small Business,,,,https://www.tleconsult.com,"10624 s eastern ave, ste a 377",HENDERSON,89052-2982,Tier 1 Local Emerging Small Business,"[{'NAICS Code': '541720', 'Description': 'Research and Development in the Social Sciences and Humanities', 'Capability': 'Research and Evaluation, Data'}]",[]
"American Project Management, LLC",Tier 1 Local Emerging Small Business,,,,https://www.apmlasvegas.com,"923 Serena Veneda Lane Las Vegas, NV 89138",,,Tier 1 Local Emerging Small Business,"[{'NAICS Code': '541990', 'Description': 'All Other Professional Scientific & Technical Services', 'Capability': 'Scheduling Consulting'}]",[]
Victory Drywall LLC,Tier 1 Local Emerging Small Business,,,gbrowndine@yahoo.com,https://victorydrywallnv.com,2770 Beach River Dr.,Reno,89521,Tier 1 Local Emerging Small Business,"[{'NAICS Code': '238310', 'Description': 'Drywall Contractor', 'Capability': ''}]",[]
BeeNBeesRus LLC,Tier 1 Local Emerging Small Business,,,Rush@beenbeesrus.com,,1810 E Sahara Ave STE 212 #2638,Las Vegas,89104,Tier 1 Local Emerging Small Business,"[{'NAICS Code': '531390', 'Description': 'Other Activities Related to Real Estate', 'Capability': 'REO services, property preservation, renovation/rehabilitation also Inspection, Grass/Shrubs, Snow Remove, Winterization, Lock Change, Maid Service, Trash Out, Lawn Care, Landscaping'}]",[]
DC Randall Corporation,Tier 1 Local Emerging Small Business,,,drandall@dcrandallcorporation.biz,,551 White Eagle Lane,Fernley,89408,Tier 1 Local Emerging Small Business,"[{'NAICS Code': '238210', 'Description': 'Electrical Contractors', 'Capability': 'Big R/Scheel Construction'}]",[]
MWH Geo-Surveys International Inc.,Tier 2 Local Emerging Small Business,,,,https://www.mwhgeo.com,"50 W Liberty St, Suite 880",Reno,89501,Tier 2 Local Emerging Small Business,"[{'NAICS Code': '541360', 'Description': 'Geophysical Surveying and Mapping Services', 'Capability': ''}]",[]
Emploi LLC,Tier 1 Local Emerging Small Business,,,support@emploi.agency,https://www.emploi.agency,400 S 4th St. Suite 500,Las Vegas,89101,Tier 1 Local Emerging Small Business,"[{'NAICS Code': '488510', 'Description': 'Freight Transportation Arrangement', 'Capability': 'Freight Services'}]",[]
Norris Mcdonald,Tier 1 Local Emerging Small Business,,,thegardenerway@gmail.com,,3141 Plum wood LN,N Las Vegas,89030,Tier 1 Local Emerging Small Business,"[{'NAICS Code': '561730', 'Description': 'Landscaping services', 'Capability': ''}]",[]
Advance Consulting Solutions Group LLC,Tier 2 Local Emerging Small Business,,,,https://advancedconsultingsolutions.com/,3330 W. Desert Inn Road,Las Vegas,89102,Tier 2 Local Emerging Small Business,"[{'NAICS Code': '54133', 'Description': 'Engineering Services', 'Capability': 'Fire Protection Engineering Consulting'}]",[]
Legaci Cleaners LLC,Tier 1 Local Emerging Small Business,,,Legacicleaners@gmail.com,,2921 Moretta Court,North Las Vegas,89086,Tier 1 Local Emerging Small Business,"[{'NAICS Code': '561720', 'Description': 'Janitorial Services', 'Capability': 'Janitorial cleaning'}]",[]
JL DIGITAL LLC.,Tier 1 Local Emerging Small Business,,,SUPPORT@JANDLDIGITAL.COM,https://jandldigital.com,35 N. EDISON WAY #45,RENO,89502,Tier 1 Local Emerging Small Business,"[{'NAICS Code': '238210', 'Description': 'Electrical Contractors and Other Wiring Installation Contractors', 'Capability': 'LED Video Walls, Structured Cabling, Fiber optic cable contractor'}]",[]
Nano Kai,Tier 1 Local Emerging Small Business,,,shaun.kama@nanokaihawaii.com,https://www.nanokaihawaii.com,2121 E Flamingo Suite 214,Paradise,89199,Tier 1 Local Emerging Small Business,"[{'NAICS Code': '621511', 'Description': 'Medical Laboratories', 'Capability': 'Healthcare testing and concierge service'}]",[]
Valarie Aguirre,Tier 1 Local Emerging Small Business,,,thebookandthebean@gmail.com,https://www.bookandthebean.com,3058 Silent Wind Way,Henderson,89052,Tier 1 Local Emerging Small Business,"[{'NAICS Code': '454111', 'Description': 'Internet retail sales sites', 'Capability': 'Retail sales of New books, stationary, puzzles etc.'}]",[]
iCoach,Tier 1 Local Emerging Small Business,,,icoachu4success@outlook.com,https://icoachu4successcom,"1000 Painted Peak Way,",Las Vegas,89108,Tier 1 Local Emerging Small Business,"[{'NAICS Code': '541611', 'Description': 'Administrative Management and General Management Consulting Services', 'Capability': 'Management Consulting Services'}]",[]
"All Vegas Services, LLC",Tier 1 Local Emerging Small Business,,,info@allvegasservices.com,https://allvegasservices.com,9346 Fender Ct,Las Vegas,89149,Tier 1 Local Emerging Small Business,"[{'NAICS Code': '561720', 'Description': 'Janitorial Services', 'Capability': 'Building cleaning services, interior'}]",[]
CH GLOBAL SOLUTIONS LLC,Tier 1 Local Emerging Small Business,,,info@chglobalsolutions.com,https://www.chglobalsolutions.com,11000 S. EASTERN AVE #1227,HENDERSON,89052,Tier 1 Local Emerging Small Business,"[{'NAICS Code': '721110', 'Description': 'Hotels (except Casino Hotels) and Motels', 'Capability': 'Lodging'}]",[]
Dunk Zone,Tier 1 Local Emerging Small Business,,,dunk-zone@outlook.com,https://www.dunkzone.com,1000 Painted Peak Way,Las Vegas,89108,Tier 1 Local Emerging Small Business,"[{'NAICS Code': '713990', 'Description': 'All Other Amusement and Recreation Industries', 'Capability': ''}]",[]
Prestige Flooring LLC,Tier 1 Local Emerging Small Business,,,prestigeflooringnv@gmail.com,,6370 Coral Flower Ct,Las Vegas,89141,Tier 1 Local Emerging Small Business,"[{'NAICS Code': '238340', 'Description': 'Tile and Terrazzo Contractors', 'Capability': ''}]",[]
Grand Event Rental LLC,Tier 1 Local Emerging Small Business,,,Support@GrandEventRental.com,https://www.GrandEventRental.com,"6815 Sierra Center Parkway, Suite 450",Reno,89511,Tier 1 Local Emerging Small Business,"[{'NAICS Code': '532289', 'Description': 'All Other Consumer Goods Rental', 'Capability': 'Tent Shelter, Table, Chair, Portable heat and Air Conditioning'}]",[]
Ideal Floors & Cabinets LLC,Tier 1 Local Emerging Small Business,,,sam@idealfloorscabinets.com,,4275 N Rancho Drive,Las Vegas,89130,Tier 1 Local Emerging Small Business,"[{'NAICS Code': '238330', 'Description': 'Flooring Contractors', 'Capability': ''}]",[]
PAC ARMED LLC,Tier 1 Local Emerging Small Business,,,a.nepo@pacarmed.com,,5940 S Rainbow Blvd,las vegas,89118,Tier 1 Local Emerging Small Business,"[{'NAICS Code': '561612', 'Description': 'Security Guards and Patrol Services', 'Capability': 'security services'}]",[]
Sin City Snacks Vending LLC,Tier 1 Local Emerging Small Business,,,Fred@VegasHV.com,,5381 LINDERO Place,Las Vegas,89119,Tier 1 Local Emerging Small Business,"[{'NAICS Code': '445132', 'Description': 'Vending Machine Operators', 'Capability': ''}]",[]
Warp 10 Labs LLC,Tier 1 Local Emerging Small Business,,,childers@fastestlabs.com,https://www.fastestlabs.com/ne-las-vegas/,4375 Las Vegas Blvd N Suite 9,Las Vegas,89115,Tier 1 Local Emerging Small Business,"[{'NAICS Code': '621999', 'Description': 'All Other Miscellaneous Ambulatory Health Care Services', 'Capability': 'Drug Testing Services'}]",[]
"QMS Construction, Inc.",Tier 1 Local Emerging Small Business,,,,,"633 S. 4th St., Ste # 4",Las Vegas,89101,Tier 1 Local Emerging Small Business,"[{'NAICS Code': '236220', 'Description': 'Commercial and Institutional Building Construction', 'Capability': 'General Construction, Tenant Improvements, Renovations, etc.'}]",[]
KPF Enterprises LLC,Tier 1 Local Emerging Small Business,,,Kenny@KPFenterprises.com,https://www.KPFenterprises.com,29 Desert Dawn Lane,Henderson,89074,Tier 1 Local Emerging Small Business,"[{'NAICS Code': '561720', 'Description': 'Building cleaning services, interior', 'Capability': 'Residential and Commercial Cleaning'}]",[]
Beem Constructors LLC,Tier 1 Local Emerging Small Business,,,,https://www.beemconstructors.com,3420 Regent Diamond Ave,Las Vegas,89106-1358,Tier 1 Local Emerging Small Business,"[{'NAICS Code': '237990', 'Description': 'Other Heavy and Civil Engineering Construction', 'Capability': 'Heavy and Civil Engineering Construction'}]",[]
"SLS LOGISTICS, LLC",Tier 1 Local Emerging Small Business,,,contact@slslogisticsllc.com,https://www.slslogisticsllc.com,8977 SAGEMOOR DR,RENO,89506,Tier 1 Local Emerging Small Business,"[{'NAICS Code': '488510', 'Description': 'Freight Transportation Arrangement', 'Capability': 'Freight Brokerage'}]",[]
Hozhonigo Consulting LLC,Tier 1 Local Emerging Small Business,,,,https://www.hozhonigo.com,9940 Savannah Marie Ave,Las Vegas,89149,Tier 1 Local Emerging Small Business,"[{'NAICS Code': '561410', 'Description': 'Document Preparation Services', 'Capability': 'Grant Writing'}]",[]
"Clean Energy Vehicle Recreation Association, Inc.",Tier 1 Local Emerging Small Business,,,,https://cevra.org,1650 Mount Hood St,Las Vegas,89156,Tier 1 Local Emerging Small Business,"[{'NAICS Code': '519290', 'Description': 'Web Search Portals and All Other Information Services', 'Capability': 'industry directory information service'}]",[]
"Practical Project Management, LLC",Tier 1 Local Emerging Small Business,,,matthew@practicalprojectmanagement.com,https://www.practicalprojectmanagement.com/,4550 Lynnfield Ct,Reno,89519,Tier 1 Local Emerging Small Business,"[{'NAICS Code': '541611', 'Description': 'Administrative Management and General Management Consulting', 'Capability': ''}]",[]
Desert Wind Cleaning LLC,Tier 1 Local Emerging Small Business,,,info@desertwindcleaning.com,https://desertwindcleaning.com,7848 W Sahara Ave,Las Vegas,89117,Tier 1 Local Emerging Small Business,"[{'NAICS Code': '561720', 'Description': 'Janitorial Services', 'Capability': 'Building cleaning services, janitorial'}]",[]
Bric X Bric Production,Tier 1 Local Emerging Small Business,,,bricxbric@gmail.com,,1038 S Main Street,Las Vegas,89101,Tier 1 Local Emerging Small Business,"[{'NAICS Code': '512290', 'Description': 'Other Sound Recording Industries', 'Capability': ''}]",[]
Fuselogix L.L.C.,Tier 1 Local Emerging Small Business,,,support@fuselogix.com,https://www.fuselogix.com,"1180 N. Town Center Dr., Suite 100",Las Vegas,89144,Tier 1 Local Emerging Small Business,"[{'NAICS Code': '541519', 'Description': 'Other Computer Related Services', 'Capability': ''}]",[]
"Facilities Management, Inc",Tier 2 Local Emerging Small Business,,,,,3005 Old US Hwy 395N,Washoe Valley,89704,Tier 2 Local Emerging Small Business,"[{'NAICS Code': '236220', 'Description': 'Commercial and Institutional Building Construction', 'Capability': 'Public Works'}]",[]
The Trucking Agency LLC,Tier 1 Local Emerging Small Business,,,sheilascott-wallace@thetruckingagency.onmicrosoft.com,https://thetruckingagency.net,1050 Via Di Olivia St,Henderson,89011,Tier 1 Local Emerging Small Business,"[{'NAICS Code': '484220', 'Description': 'Dump trucking (e.g., gravel, sand, top-soil)', 'Capability': ''}]",[]
Magnolia Catering Company LLC,Tier 1 Local Emerging Small Business,,,Chefshelia@icloud.com,https://Www.magnoliacatering.com,4473 vicobello ave,Las vegas,89141,Tier 1 Local Emerging Small Business,"[{'NAICS Code': '722320', 'Description': 'Caterers', 'Capability': '70'}]",[]
SkyFly Industries LLC,Tier 1 Local Emerging Small Business,,,damien.white@skyflyindustriesllc.com,https://www.skyflyindustriesllc.com/,10409 PACIFIC PALISADES AVE,Las Vegas,89144,Tier 1 Local Emerging Small Business,"[{'NAICS Code': '424210', 'Description': 'Wholesalers', 'Capability': 'Quality Control: Wholesalers must ensure that the products they sell meet quality standards. This involves inspecting goods for defects, testing products, and verifying compliance with industry regulations.'}]",[]
"Odd Professional, LLC",Tier 1 Local Emerging Small Business,,,Support@theoddpro.com,https://theoddpro.com/,6130 W. Flamingo Road #113,Las Vegas,89103,Tier 1 Local Emerging Small Business,"[{'NAICS Code': '541611', 'Description': 'Business Management Consulting Services', 'Capability': ''}]",[]
SoSuTV Corporation,Tier 1 Local Emerging Small Business,,,sosutv@gmail.com,https://sosu.tv,"3550 Barron Way, #5a",Reno,89511,Tier 1 Local Emerging Small Business,"[{'NAICS Code': '512110', 'Description': 'Motion Picture and Video Production', 'Capability': 'Video production - Government content production'}]",[]
Doc’s Software Inc,Tier 1 Local Emerging Small Business,,,DocSoftwareInc@gmail.com,,2001 Shelbyville St,Henderson,89052,Tier 1 Local Emerging Small Business,"[{'NAICS Code': '423430', 'Description': 'Computer and Computer Peripheral Equipment and Software Merchant Wholesalers', 'Capability': 'Sofware Reseller'}]",[]
Sky Visual Solutions,Tier 1 Local Emerging Small Business,,,,https://www.skyvisual.us,4010 W. Ali Baba Ln Ste. C,Las Vegas,89118,Tier 1 Local Emerging Small Business,"[{'NAICS Code': '541370', 'Description': 'Surveying and Mapping (except Geophysical) Services', 'Capability': 'Photogrammetry, Modeling'}]",[]
Robin Rankow,Tier 1 Local Emerging Small Business,,,robinrankow@gmail.com,https://robinrankow.com,432 Ackerman Lane,Henderson,89014,Tier 1 Local Emerging Small Business,"[{'NAICS Code': '541990', 'Description': 'Appraisal (except real estate) services', 'Capability': 'Antique, Vintage, Collections, Varied Personal Property/Residential  Items'}]",[]
"Present Mind, LLC",Tier 1 Local Emerging Small Business,,,drjohannagruen@presentmindnv.com,https://presentmindnv.com,"421 W Plumb Ln, Suite H",Reno,89509,Tier 1 Local Emerging Small Business,"[{'NAICS Code': '621330', 'Description': 'Offices of Mental Health Practitioners (except Physicians)', 'Capability': 'Clinical Psychologist Office'}]",[]
MAILBOXES PLUS,Tier 1 Local Emerging Small Business,,,MBPLASVEGAS@GMAIL.COM,https://WWW.INSTAGRAM.COM/MAILBOXESPLUSLV,4225 S.EASTERN AVE #6,LAS VEGAS,89119,Tier 1 Local Emerging Small Business,"[{'NAICS Code': '561431', 'Description': 'Private Mail Centers', 'Capability': ''}]",[]
"Avanti Group, Inc",Tier 2 Local Emerging Small Business,,,sales@avantigreen.com,https://www.avantigreen.com,"10161 Park Run Dr., Ste. 150",Las Vegas,89145,Tier 2 Local Emerging Small Business,"[{'NAICS Code': '561720', 'Description': 'Janitorial Services', 'Capability': 'Housekeeping (i.e., cleaning) services & commercial cleaning'}]",[]
Battle Born Notary LLC,Tier 1 Local Emerging Small Business,,,alyssiab@powernomicscos.com,,7405 delicious court,Las Vegas,89149,Tier 1 Local Emerging Small Business,"[{'NAICS Code': '424120', 'Description': 'Office Supplies and Equipment', 'Capability': ''}]",[]
Air Cav ATM LLC.,Tier 1 Local Emerging Small Business,,,info@aircavatm.com,https://aircavatm.com,5708 Saint Elias Street,North Las Vegas,89081,Tier 1 Local Emerging Small Business,"[{'NAICS Code': '522320', 'Description': 'Financial Transactions Processing, Reserve, and Clearinghouse Activities', 'Capability': 'Automated Teller Machine (ATM) or Automated Loan Machine (ALM) network operation|ATM Services for storefronts'}]",[]
Silver State Glass & Mirror Co.,Tier 1 Local Emerging Small Business,,,Projectadmin@Silverstateglass.com,https://silverstateglass.com/,2825 E Fremont St.,Las Vegas,89104,Tier 1 Local Emerging Small Business,"[{'NAICS Code': '238150', 'Description': 'Glazing Contractors', 'Capability': 'Glass, windows, Storefront and doors.'}]",[]
Caseys cleaning services,Tier 1 Local Emerging Small Business,,,nathan@caseyscleaning.com,,1707 Discus Drive,LAS VEGAS,89108,Tier 1 Local Emerging Small Business,"[{'NAICS Code': '561720', 'Description': 'Janitorial Services', 'Capability': 'janitoral services - building cleaning services, janitoral'}]",[]
Winged Wolf Innovations LLC,Tier 1 Local Emerging Small Business,,,tlu@wingedwolf.org,https://(in development),4904 Camino Al Norte #338275,North Las Vegas,89033,Tier 1 Local Emerging Small Business,"[{'NAICS Code': '541611', 'Description': 'Administrative Management and General Management Consulting Services', 'Capability': 'Community and Organizational Development -  General management consulting services'}]",[]
AJ Transport,Tier 1 Local Emerging Small Business,,,ajconsulting.nv@gmail.com,https://ajconsultingnv.com,"11500 S. Eastern Ave, Ste 150",Henderson,89052,Tier 1 Local Emerging Small Business,"[{'NAICS Code': '561720', 'Description': 'Janitorial Services', 'Capability': ''}]",[]
Mermaids Home Cleaning LLC,Tier 1 Local Emerging Small Business,,,,https://www.mermaidshomecleaning.com,3680 East Harmon Avenue,Las Vegas,89121,Tier 1 Local Emerging Small Business,"[{'NAICS Code': '561720', 'Description': 'Janitorial Services', 'Capability': 'Cleaning services'}]",[]
PM Solutions Consulting LLC,Tier 2 Local Emerging Small Business,,,felicia@summitconsultingnv.com,https://www.summitconsultingnv.com,10737 Esk Dr,Las Vegas,89144,Tier 2 Local Emerging Small Business,"[{'NAICS Code': '541511', 'Description': 'Custom Computer Programming Services', 'Capability': 'Customer services management consulting services New product development consulting services Marketing management consulting services Sales management consulting services'}]",[]
DM Global Consulting LLC,Tier 1 Local Emerging Small Business,,,dijana@dmglobalconsulting.com,https://dmglobalconsulting.com/,1513 Frandosa Ln,Las Vegas,89117,Tier 1 Local Emerging Small Business,"[{'NAICS Code': '541611', 'Description': 'Administrative Management and General Management Consulting Services', 'Capability': 'global business consultancy'}]",[]
TAILORED ASSISTANT LLC,Tier 1 Local Emerging Small Business,,,tailoredassistants@gmail.com,https://www.tailoredassistant.com,4340 HERA TEMPLE AVE,North Las Vegas,89031,Tier 1 Local Emerging Small Business,"[{'NAICS Code': '561110', 'Description': 'OFFICE ADMINISTRATIVE SERVICES', 'Capability': 'OFFICE ADMINISTRATIVE SUPPORT, VIRTUAL ADMINISTRAVICE SUPPORT, CLERICAL, DATA ENTRY, ACCOUNTS PAYABLE AND CALENDAR MANAGEMENT.'}]",[]
10th Light LLC,Tier 1 Local Emerging Small Business,,,,,2785 E Desert Inn Rd Ste 140,Las Vegas,89121,Tier 1 Local Emerging Small Business,"[{'NAICS Code': '541620', 'Description': 'Environmental Consulting Services', 'Capability': 'Quality Health, Safety and Environmental'}]",[]
Red Wolf Tek LLC,Tier 1 Local Emerging Small Business,,,,,3312 Via Altamira,Henderson,89044,Tier 1 Local Emerging Small Business,"[{'NAICS Code': '541690', 'Description': 'Other Scientific and Technical Consulting Services', 'Capability': 'Microsoft Dynamics Crm, Software development'}]",[]
Love Your Roots,Tier 1 Local Emerging Small Business,,,contact@loveyourroots.com,https://www.loveyourroots.com,1070 W Horizon Ridge Pkwy #201,Henderson,89012,Tier 1 Local Emerging Small Business,"[{'NAICS Code': '812111', 'Description': 'Barber shops', 'Capability': 'Hair Stylist and Hair Products'}]",[]
"M&M Excavating and Landscape Services, LLC",Tier 2 Local Emerging Small Business,,,mattsantino@yahoo.com,https://mmexcavatingandlandscape.com,3612 Desert Fox Dr.,Sparks,89436,Tier 2 Local Emerging Small Business,"[{'NAICS Code': '238910', 'Description': 'Site Preparation Contractors', 'Capability': 'Trenching and Grading'}]",[]
Vegas Visiting Physician Associates,Tier 1 Local Emerging Small Business,,,vegasvisitingpa@gmail.com,,"5495 S Rainbow Blvd., # 202",LAS VEGAS,89118,Tier 1 Local Emerging Small Business,"[{'NAICS Code': '621111', 'Description': 'Offices of Physicians (except Mental Health Specialists)', 'Capability': ''}]",[]
"Western Stage Props, LLC",Tier 1 Local Emerging Small Business,,,info@westernstageprops.com,https://westernstageprops.com,4017 Dean Martin Dr,Las Vegas,89103,Tier 1 Local Emerging Small Business,"[{'NAICS Code': '332992', 'Description': 'Small Arms Ammunition Manufacturing', 'Capability': ''}]",[]
"Amela Consulting, LLC",Tier 1 Local Emerging Small Business,,,,https://www.amelaconsulting.com,6833 Arcadia Creek Street,North Las Vegas,89084,Tier 1 Local Emerging Small Business,"[{'NAICS Code': '541611', 'Description': 'Administrative Management and General Management Consulting Services', 'Capability': 'Professional, Scientific, and Technical Services'}]",[]
General Security & Response Services LLC,Tier 1 Local Emerging Small Business,,,,,"3753 Howard Hughes PKWY, suite 200",Las Vegas,89169,Tier 1 Local Emerging Small Business,"[{'NAICS Code': '561612', 'Description': 'Security guard services', 'Capability': 'Security Transportation, Residential'}]",[]
VITAL LANDSCAPE CO,Tier 1 Local Emerging Small Business,,,VitalLandscapeCo@gmail.com,,4326 W. CHEYENNE AVE,NORTH LAS VEGAS,89032,Tier 1 Local Emerging Small Business,"[{'NAICS Code': '561730', 'Description': 'Landscape Maintenance and cleanup', 'Capability': 'Landscape Service'}]",[]
"Rowdy, LLC",Tier 1 Local Emerging Small Business,,,kellie@rowdybars.com,https://www.rowdybars.com,4900 Mill Street Suite 4/5,Reno,89502,Tier 1 Local Emerging Small Business,"[{'NAICS Code': '311999', 'Description': 'All Other Miscellaneous Food Manufacturing', 'Capability': 'Food and Supplements'}]",[]
Perpetual Accountability Responsibility Change (PARC) at Sankofa LLC,Tier 1 Local Emerging Small Business,,,info@parcnv.com,https://www.parcnv.com,"4535 W Russell Rd, Suite 16",Las Vegas,89118,Tier 1 Local Emerging Small Business,"[{'NAICS Code': '611430', 'Description': 'Professional and Management Development Training', 'Capability': 'Educational services court ordered'}]",[]
Provisions Media & Consulting LLC,Tier 1 Local Emerging Small Business,,,Hello@provisionsmc.com,https://Www.provisionsmc.com,282 E Neal Ave,Las Vegas,89183,Tier 1 Local Emerging Small Business,"[{'NAICS Code': '541613', 'Description': 'Marketing consulting services', 'Capability': 'Provides operating advice to businesses and other organizations on marketing issues.'}]",[]
"Farr Valuation, Inc.",Tier 1 Local Emerging Small Business,,,Terry@FarrValuation.com,https://www.FarrValuation.com,9262 Sailing Water Ave,Las Vegas,89147,Tier 1 Local Emerging Small Business,"[{'NAICS Code': '531320', 'Description': ""Appraisers' Offices, Real Estate"", 'Capability': 'Appraisal, Consulting'}]",[]
Golden Express of Nevada LLC,Tier 2 Local Emerging Small Business,,,geinstall@aol.com,,2675 Mill Street,Reno,89502,Tier 2 Local Emerging Small Business,"[{'NAICS Code': '238390', 'Description': 'Modular furniture system attachment installation', 'Capability': 'Deliver and install office furniture'}]",[]
"Agilkin, LLC",Tier 1 Local Emerging Small Business,,,sly.nettles@agilkin.io,https://www.agilkin.io,8838 Ashley Park Avenue,Las Vegas,89148,Tier 1 Local Emerging Small Business,"[{'NAICS Code': '541611', 'Description': 'Business management consulting services', 'Capability': 'Agile Program and Project Management'}]",[]
Vegas Metal Worx LLC,Tier 1 Local Emerging Small Business,,,Vegasmetalworx@Gmail.com,,1017 Sage Hollow Circle,North Las Vegas,89031,Tier 1 Local Emerging Small Business,"[{'NAICS Code': '332312', 'Description': 'Fabricated Structural Metal Manufacturing', 'Capability': 'CNC Jet Cutting'}]",[]
Arvin Construction INC,Tier 1 Local Emerging Small Business,,,info@arvinconstruction.com,https://www.arvinconstruction.com,8804 Valley Creek Dr,Las Vegas,89134,Tier 1 Local Emerging Small Business,"[{'NAICS Code': '236115', 'Description': 'New Single-Family Housing Construction (except For-Sale Builders)', 'Capability': 'Condominium, single-family, construction general contractors - Arvin Construction inc'}]",[]
KMJ 2.0 LLC,tier_one,,,,https://kmjwebdesign.com,6615 S. Eastern Ave. Suite 105,Las Vegas,89119,tier_one,"[{'NAICS Code': '541511', 'Description': 'Custom Computer Programming Services', 'Capability': 'Web Design/Mobile App Development'}]",[]
Big Karl Ventures LLC,Tier 1 Local Emerging Small Business,,,,https://www.falkbuilt.com,2245 LUCERNE DR,HENDERSON,89014,Tier 1 Local Emerging Small Business,"[{'NAICS Code': '236220', 'Description': 'Commercial and Institutional Building Construction', 'Capability': ''}]",[]
Gone Junkin Vegas LLC,Tier 1 Local Emerging Small Business,,,Mike@gonejunkinvegas.com,https://www.Gonejunkinvegas.com,849 Via Del Castello Street,Henderson,89011,Tier 1 Local Emerging Small Business,"[{'NAICS Code': '562119', 'Description': 'collecting and/or hauling waste (except nonhazardous solid waste and hazardous waste) within a local area. Establishments engaged in brush or rubble removal services are included in this industry.', 'Capability': ''}]",[]
Crime Busters of Nevada Inc.,Tier 2 Local Emerging Small Business,,,jessicap@asapnv.com,https://www.asapnv.com,3170 Polaris Avenue Ste 4,Las Vegas,89102,Tier 2 Local Emerging Small Business,"[{'NAICS Code': '561621', 'Description': 'Security Systems Services', 'Capability': 'Alarms, surveillance systems'}]",[]
All American Blind Co. Inc.,Tier 1 Local Emerging Small Business,,,admin@allamericanblindco.com,https://allamericanblindco.com,3590 Crow Ave,Elko,89801,Tier 1 Local Emerging Small Business,"[{'NAICS Code': '449122', 'Description': 'Window Treatment Stores', 'Capability': 'Service Delivery'}]",[]
Simplus Systems LLC,Tier 1 Local Emerging Small Business,,,tsweeney@simplus-systems.com,https://simplus-systems.com,6875 Windy Hill Way,Reno,89511,Tier 1 Local Emerging Small Business,"[{'NAICS Code': '236115', 'Description': 'Panelized single-family housing assembled on site by general contractors', 'Capability': 'Simplus Building System integrating Passive House Design with magnesium oxide (MgO) structural insulated panels (SIPs)'}]",[]
Sweat Reno L.L.C.,Tier 1 Local Emerging Small Business,,,info@sweatreno.com,https://www.sweatreno.com,2303 S VIRGINIA ST,Reno,89502,Tier 1 Local Emerging Small Business,"[{'NAICS Code': '812199', 'Description': 'Other Personal Care Services', 'Capability': 'Sauna - U.S. industry comprises establishments primarily engaged in providing personal care services (except hair, nail, facial, nonpermanent makeup, or non-medical diet and weight reducing services).Infrared saunas and whole body cryotherapy for health and healing'}]",[]
"I WORLD CLASS DESIGN, LLC",Tier 1 Local Emerging Small Business,,,,https://iworldclassdesign.com,"161 Pioneer Peak Pl.,",Las Vegas,89138,Tier 1 Local Emerging Small Business,"[{'NAICS Code': '541430', 'Description': 'Graphic Design Services', 'Capability': 'Design of logos, brochures, flyers, annual reports, presentations, infographics, signs, social media covers and posts, etc'}]",[]
Mapcc Services LLC,Tier 1 Local Emerging Small Business,,,,,3224 BONASSOLA AVE,North Las Vegas,89031,Tier 1 Local Emerging Small Business,"[{'NAICS Code': '561720', 'Description': 'Janitorial Services', 'Capability': 'Cleaning'}]",[]
Mattlock locking systems LLC,Tier 1 Local Emerging Small Business,,,,https://mattlock.net,8560 rosada way,las vegas,89149,Tier 1 Local Emerging Small Business,"[{'NAICS Code': '561622', 'Description': 'locksmith services', 'Capability': '40 hrs week'}]",[]
Armstrong Restoration LLC,Tier 1 Local Emerging Small Business,,,armstrongrestorationlv@gmail.com,,6349 citrine ave,Las Vegas,89130,Tier 1 Local Emerging Small Business,"[{'NAICS Code': '236118', 'Description': 'Residential Remodelers', 'Capability': 'fire and flood restoration'}]",[]
D&D Beauty Supply LLC,Tier 1 Local Emerging Small Business,,,danddbeautysupply@gmail.com,https://danddbeautysupply.square.site,5983 SHENANDOAH AVE,LAS VEGAS,89156,Tier 1 Local Emerging Small Business,"[{'NAICS Code': '453998', 'Description': 'all other miscellaneous store retailers', 'Capability': 'HAIR'}]",[]
Gerardo’s Travel LLC,Tier 1 Local Emerging Small Business,,,Gerardo@ViaAvione.com,https://ViaAvione.com,"950 Nutmeg Place, suite i-20 ""eye 20""",Reno,89502,Tier 1 Local Emerging Small Business,"[{'NAICS Code': '561510', 'Description': 'Travel Agencies', 'Capability': 'This industry comprises establishments primarily engaged in acting as agents in selling travel, tour, and accommodation services to the general public and commercial clients.'}]",[]
Sin City Ventures Corp,Tier 2 Local Emerging Small Business,,,flowerpetalboutique@icloud.com,https://www.lasvegasflowerpetal.com,"3981 E Sunset Rd, Suite E",Las Vegas,89120,Tier 2 Local Emerging Small Business,"[{'NAICS Code': '459310', 'Description': 'Florists', 'Capability': 'Flowers, Fresh Flowers'}]",[]
"DWP Transport, LLC",Tier 1 Local Emerging Small Business,,,dietrich.pitchford@dwptransportllc.com,https://www.dwptransportllc.com,2324 Ozark Way,North Las Vegas,89031,Tier 1 Local Emerging Small Business,"[{'NAICS Code': '484110', 'Description': 'General Freight Trucking, Local', 'Capability': ''}]",[]
Opt8 Automations LLC,Tier 1 Local Emerging Small Business,,,opt8automations@gmail.com,https://www.opt-8.com,556 E Solstice Ave,Las Vegas,89123,Tier 1 Local Emerging Small Business,"[{'NAICS Code': '541512', 'Description': 'Computer Systems Design Services', 'Capability': ''}]",[]
Franko Electric LLC,Tier 1 Local Emerging Small Business,,,frankollc@aol.com,https://frankoelectric.com,4904 Santo Avenue,Las Vegas,89108,Tier 1 Local Emerging Small Business,"[{'NAICS Code': '238210', 'Description': 'Electrical Contractor', 'Capability': 'Furnish Commercial and residential electrical projects of any size.'}]",[]
101 BARBERSHOP LLC,Tier 1 Local Emerging Small Business,,,101vegasbarbershop@gmail.com,,16 W Horizon Ridge Pkwy # 100,HENDERSON,89012,Tier 1 Local Emerging Small Business,"[{'NAICS Code': '812111', 'Description': 'Barber Shops', 'Capability': 'HAIRCUTS'}]",[]
K2 Analytics INC.,Tier 1 Local Emerging Small Business,,,,https://www.k2analytics.com/,4880 W University Ave. Ste B3,Las Vegas,89103,Tier 1 Local Emerging Small Business,"[{'NAICS Code': '541511', 'Description': 'Web (i.e., Internet) page design services, custom', 'Capability': ''}]",[]
Puretech,Tier 1 Local Emerging Small Business,,,,https://www.puretechlv.com,10409 Pacific Palisades Ave.,Las Vegas,89144,Tier 1 Local Emerging Small Business,"[{'NAICS Code': '561740', 'Description': 'Carpet and Upholstery Cleaning Services', 'Capability': 'carpet, tile, marble,'}]",[]
"Greenwalker Security, LLC",Tier 1 Local Emerging Small Business,,,aakin@greenwalkersecurity.com,,1986 Kamber Ct,Las Vegas,89119,Tier 1 Local Emerging Small Business,"[{'NAICS Code': '541512', 'Description': 'Computer Systems Integration Design Consulting Services', 'Capability': 'Cybersecurity Advisory, Auditing, Staffing, and consulting services'}]",[]
Real Deal Property Management LLC dba CLEAN,Tier 2 Local Emerging Small Business,,,call@cleanallcommercial.com,https://www.cleanallcommercial.com,"1701 W. Charleston Blvd, #315",Las Vegas,89102,Tier 2 Local Emerging Small Business,"[{'NAICS Code': '561720', 'Description': 'Janitorial Services', 'Capability': 'Building interiors, office Buildings, other commercial spaces'}]",[]
Owens Equipment Repair L.L.C.,Tier 1 Local Emerging Small Business,,,owensequipmentrepair@gmail.com,,5280 ECHO AVE,RENO,89506,Tier 1 Local Emerging Small Business,"[{'NAICS Code': '811310', 'Description': 'Commercial and Industrial Machinery and Equipment (except Automotive and Electronic) Repair and Maintenance.', 'Capability': 'I have the tools and machines needed to offer services in Heavy Equipment Repair and Maintenance Services'}]",[]
Frazier Brothers Painting LLC,Tier 1 Local Emerging Small Business,,,joe@frazierbrotherspainting.com,https://frazierbrotherspainting.com,"401 Ryland ST, Suite 200 - A",Reno,89502,Tier 1 Local Emerging Small Business,"[{'NAICS Code': '238320', 'Description': 'Painting and Wall Covering Contractors', 'Capability': ''}]",[]
"B2B Solutions, LLC.",Tier 1 Local Emerging Small Business,,,,https://www.b2binkandtoner.com,20 Columbine Court,Sun Valley,89433,Tier 1 Local Emerging Small Business,"[{'NAICS Code': '423410', 'Description': 'Photographic Equipment and Supplies Merchant Wholesalers', 'Capability': ''}]",[]
Raul Martinez,Tier 2 Local Emerging Small Business,,,,,1695 Collins Cir.,Reno,89506,Tier 2 Local Emerging Small Business,"[{'NAICS Code': '561730', 'Description': 'Landscaping services', 'Capability': ''}]",[]
Only 3 Snack Crisps LLC,Tier 1 Local Emerging Small Business,,,support@only3snacks.com,https://only3snacks.com/,441 Cadence View Way,Henderson,89011,Tier 1 Local Emerging Small Business,"[{'NAICS Code': '311919', 'Description': 'Other Snack Food Manufacturing', 'Capability': 'This U.S. industry comprises establishments primarily engaged in manufacturing snack foods (except roasted nuts and peanut butter). We manufacture our Spelt-flour Based Snack Crisps, along with our Energy Bars and Trail Mix'}]",[]
Pivotal Behavior Consulting LLC,Tier 1 Local Emerging Small Business,,,ninamccartney@pivotbx.org,https://www.pivotbx.org,1905 Echo Pass Road,Reno,89521,Tier 1 Local Emerging Small Business,"[{'NAICS Code': '621399', 'Description': 'Offices of All Other Miscellaneous Health Practitioners', 'Capability': 'Applied Behavior Analysis'}]",[]
PRODAJSA USA INC,Tier 2 Local Emerging Small Business,,,acastro2@hciera.com,https://www.hciera.com,5725 S. Valley View Blvd. Suite 7,Las Vegas,89118,Tier 2 Local Emerging Small Business,"[{'NAICS Code': '541810', 'Description': 'Advertising Agencies', 'Capability': ''}]",[]
AGC ECOMMERCE LLC.,Tier 1 Local Emerging Small Business,,,CESAR@AGCGUNS.COM,,,,,,,
"Stay Clean, LLC",Tier 1 Local Emerging Small Business,,,abeny.stayclean@gmail.com,,,,,,,
"Salt, LLC",Tier 1 Local Emerging Small Business,,,abe@avluxtech.com,,,,,,,
"Coda Group, Inc.",Tier 1 Local Emerging Small Business,,,jennifer@codagroupinc.com,https://www.codagroupinc.com,"11035 Lavender Hill Drive, Ste 160-331",Las Vegas,89135,Tier 1 Local Emerging Small Business,"[{'NAICS Code': '541310', 'Description': 'Architectural Services', 'Capability': 'Architectural Services'}]",[]
DB Enterprises LLC,Tier 1 Local Emerging Small Business,,,darren.blinn@sincitytechnology.com,https://www.sincitytechnology.com,3400 W. Desert Inn Road Suite 27,Las Vegas,89102,Tier 1 Local Emerging Small Business,"[{'NAICS Code': '541512', 'Description': 'Computer Systems Design and Related Services', 'Capability': 'Computer Cloud Services, Cybersecurity, Digital Signage, Multimedia'}]",[]
Universal Fiber Optics LLC,Tier 1 Local Emerging Small Business,,,,https://www.ufocable.com,3773 Howard Hughes Pkwy Suite 500S,Las Vegas,89169,Tier 1 Local Emerging Small Business,"[{'NAICS Code': '238210', 'Description': 'Electrical Contractors and Other Wiring Installation Contractors', 'Capability': ''}]",[]
"Harriman Solution Group, LLC",Tier 1 Local Emerging Small Business,,,steven@harrimansolutiongroup.com,https://www.harrimansolutiongroup.com,1381 Silver view circle,Sparks,89436,Tier 1 Local Emerging Small Business,"[{'NAICS Code': '541611', 'Description': 'Administrative Management and General Management Consulting Services', 'Capability': 'We are a Business Capability by leveraging our extensive experience and strategic insights to provide tailored management consulting, real estate investment advisory, and government contract management services, enabling businesses to optimize operations, achieve growth, and successfully navigate complex challenges.'}]",[]
The Beacon Center,Tier 1 Local Emerging Small Business,,,bookit@meetingspaceforyou.com,,,,,,,
Elephantidae llc dba Jobdogg,Tier 1 Local Emerging Small Business,,,ssharpe@jobdogg.com,,,,,,,
Queen Xpress LLC,Tier 1 Local Emerging Small Business,,,,,10967 Calcedonian St,Las Vegas,89141,Tier 1 Local Emerging Small Business,"[{'NAICS Code': '484110', 'Description': 'General Freight Trucking, Local', 'Capability': ''}]",[]
New Architectural Services Company LLC,Tier 1 Local Emerging Small Business,,,nas@newarchitecturalservices.com,http://newarchitecturalservices.com,1025 S 1st Street #140,Las Vegas,89128,Tier 1 Local Emerging Small Business,"[{'NAICS Code': '541310', 'Description': 'Architectural Services', 'Capability': 'Architectural Design Services'}]",[]
"Connect Staffing Professional, LLC",Tier 1 Local Emerging Small Business,,,ebony@connectstaffingagency.com,https://www.connectstaffingagency.com,6133 Maverick St,Las Vegas,89130-1381,Tier 1 Local Emerging Small Business,"[{'NAICS Code': '561311', 'Description': 'Employment Placement Agencies', 'Capability': 'Recruitment and Staffing'}]",[]
Finco Facilities Maintenance LLC,Tier 1 Local Emerging Small Business,,,aswayne@fincofm.com,https://www.fincofm.com,5920 Balzar Ave,Las Vegas,89108,Tier 1 Local Emerging Small Business,"[{'NAICS Code': '561210', 'Description': 'Facilities Support Services', 'Capability': 'Facilities maintenance'}]",[]
Friendly Consulting LLC,Tier 2 Local Emerging Small Business,,,,https://actnv.com,1009 Whitney Ranch Dr,Henderson,89014,Tier 2 Local Emerging Small Business,"[{'NAICS Code': '541513', 'Description': ""Computer systems facilities (i.e., clients' facilities) management and operation services"", 'Capability': ''}]",[]
B&M DEVELOPMENT SERVICES LLC,Tier 1 Local Emerging Small Business,,,,,8275 South Eastern Avenue SUITE 200-24,Las Vegas,89123,Tier 1 Local Emerging Small Business,"[{'NAICS Code': '541511', 'Description': 'Computer program or software development, custom', 'Capability': 'Computer program or software development, custom'}]",[]
Agevac Heating and Cooling LLC,Tier 1 Local Emerging Small Business,,,leo@agevac.com,https://www.agevac.com,6108 Edgewood Circle,Las Vegas,89107,Tier 1 Local Emerging Small Business,"[{'NAICS Code': '238220', 'Description': 'Plumbing, Heating, and Air-Conditioning Contractors', 'Capability': 'Installation ,repair and maintenance of HVAC equipment'}]",[]
PS Postal Hub,Tier 1 Local Emerging Small Business,,,info@pspostalhub.com,https://Papostalhub.com,"6355 N. Commerce St, 106",N LAS VEGAS,89031,Tier 1 Local Emerging Small Business,"[{'NAICS Code': '561431', 'Description': 'Private Mail Centers', 'Capability': 'Pack and ship/ mailbox rental'}]",[]
BRIKMAN adv llc,Tier 1 Local Emerging Small Business,,,fun@brikmanadv.com,https://www.BRIKMANadv.com,9171 W Viking Rd.,Las Vegas,89147,Tier 1 Local Emerging Small Business,"[{'NAICS Code': '541810', 'Description': 'Advertising Agencies', 'Capability': 'All-In-One Advertising agency: Strategy, Creative, Media, Social Media, Etc.'}]",[]
"Schwob Acoustics, Inc.",Tier 1 Local Emerging Small Business,,,mike@schwobacoustics.com,https://www.schwobacoustics.com,8256 Avens Place,Las Vegas,89117,Tier 1 Local Emerging Small Business,"[{'NAICS Code': '541330', 'Description': 'Engineering Services', 'Capability': 'Acoustical analysis, design and measurements'}]",[]
"Ur Locksmith, LLC",Tier 1 Local Emerging Small Business,,,urlocksmith247@gmail.com,https://locksmithvegas247.com,10989 African Sunset St,Henderson,89052,Tier 1 Local Emerging Small Business,"[{'NAICS Code': '561622', 'Description': 'Locksmiths', 'Capability': ''}]",[]
Joe Alvin Haun,Tier 1 Local Emerging Small Business,,,jhaun@hauntec.com,https://www.hauntec.com,2721 Ironside Drive,Las Vegas,89108,Tier 1 Local Emerging Small Business,"[{'NAICS Code': '541330', 'Description': 'Civil Engineering Services', 'Capability': 'Land development Design'}]",[]
Southwest Protective Agency LLC,Tier 1 Local Emerging Small Business,,,contact@southwestprotective.com,https://southwestprotective.com,3909 S. Maryland Pkwy. Ste. 208,Las Vegas,89119,Tier 1 Local Emerging Small Business,"[{'NAICS Code': '561612', 'Description': 'Security Guards and Patrol Services', 'Capability': 'Guard and Patrol Services'}]",[]
School Climate Excellence Educational Services & Consulting LLC,Tier 1 Local Emerging Small Business,,,lm@schoolclimateexcellence.org,https://schoolclimateexcellence.org/,10311 Santero bay Ct,Las Vegas,89141,Tier 1 Local Emerging Small Business,"[{'NAICS Code': '611110', 'Description': 'Elementary and Secondary Schools', 'Capability': 'Professional Development on improving school quality, character, and behaviors'}]",[]
Three Veterans Enterprises LLC,Tier 1 Local Emerging Small Business,,,,https://desertknightcdlschool.com,1080 Linda Way suite 3,SPARKS,89431,Tier 1 Local Emerging Small Business,"[{'NAICS Code': '611699', 'Description': 'All Other Miscellaneous Schools and Instruction', 'Capability': 'Truck driving school - train drivers'}]",[]
RMK Services,Tier 1 Local Emerging Small Business,,,info@rmkvegas.com,,5321 North Durango Drive,Las Vegas,89149,Tier 1 Local Emerging Small Business,"[{'NAICS Code': '238220', 'Description': 'Plumbing, Heating, and Air-Conditioning Contractors', 'Capability': 'plumbing services'}]",[]
"ISTAFFU, LLC",Tier 1 Local Emerging Small Business,,,spalding@adventurevegasevents.com,https://www.adventurevegasevents.com,245 Springtime Street,Henderson,89012,Tier 1 Local Emerging Small Business,"[{'NAICS Code': '711320', 'Description': 'Promoters of Performing Arts, Sports, and Similar Events without Facilities', 'Capability': 'Event Production / Event Emcee Announcer'}]",[]
"FormGrey Studio, LLC",Tier 2 Local Emerging Small Business,,,nhudson@formgrey.com,https://www.formgrey.com,400 South Wells Ave.,Reno,89502,Tier 2 Local Emerging Small Business,"[{'NAICS Code': '541310', 'Description': 'Architectural Services', 'Capability': 'Architectural design, planning, and construction administration'}]",[]
"Meticolous Property Inspection Management and Warranty Services, LLC",Tier 1 Local Emerging Small Business,,,,https://majesticcouriercompany.com,10624 South Eastern Avenue #593,henderson,89052,Tier 1 Local Emerging Small Business,"[{'NAICS Code': '492210', 'Description': 'Local Messengers and Local Delivery', 'Capability': 'Logistics , delivery , courier , moving , warehousing ,storage'}]",[]
"Thomas Bates, LLC",Tier 1 Local Emerging Small Business,,,thomasbatesllc@gmail.com,https://n/a,9302 Mayfair Way,Reno,89521,Tier 1 Local Emerging Small Business,"[{'NAICS Code': '541310', 'Description': 'Architectural Services', 'Capability': 'Designing AV, telecom, security, and lighting systems for various projects including hospitality, corporate offices, museums, and retail spaces'}]",[]
"BEC Environmental, Inc.",Tier 2 Local Emerging Small Business,,,eileen@becnv.com,https://www.becnv.com,"7241 W Sahara Ave, Ste 120",Las Vegas,89117,Tier 2 Local Emerging Small Business,"[{'NAICS Code': '541620', 'Description': 'Environmental Consulting Services', 'Capability': 'Environmental Consulting'}]",[]
ALKO TRADING LLC,Tier 1 Local Emerging Small Business,,,custumerservice@alkotrading.vegas,https://alkotrading.vegas,875 E Silverado Ranch Blvd,Las Vegas,89183,Tier 1 Local Emerging Small Business,"[{'NAICS Code': '424490', 'Description': 'Grocery, Produce and Related Products', 'Capability': ''}]",[]
CLICKBIO INC,Tier 1 Local Emerging Small Business,,,INFO@CLICKBIO.COM,https://WWW.CLICKBIO.COM,"1755 East Plumb Lane, Suite 145",RENO,89502,Tier 1 Local Emerging Small Business,"[{'NAICS Code': '541511', 'Description': 'Engineering', 'Capability': ''}]",[]
"D.R. Backflow Services, LLC",Tier 1 Local Emerging Small Business,,,diane@drbackflowllc.com,,"720 W CHEYENNE AVE, STE 80",NORTH LAS VEGAS,89030,Tier 1 Local Emerging Small Business,"[{'NAICS Code': '332913', 'Description': 'Backflow preventers, plumbing, manufacturing', 'Capability': 'Backflow Testing, Repairing, Cross Connection Surveys'}]",[]
Marrodo Inc.,Tier 1 Local Emerging Small Business,,,service@postbears.com,https://www.drainbears.com,2713 Thomasville Ave,Henderson,89052,Tier 1 Local Emerging Small Business,"[{'NAICS Code': '238220', 'Description': 'Plumbing, Heating, and Air-Conditioning Contractors', 'Capability': 'General plumbing services for water, drain, sewer and gas systems. New installation, repair, maintenance and service.'}]",[]
Lotus Building Automation LLC,Tier 1 Local Emerging Small Business,,,,,5830 sun river cir,las vegas,89142,Tier 1 Local Emerging Small Business,"[{'NAICS Code': '238210', 'Description': 'Electrical Contractors and Other Wiring Installation Contractors', 'Capability': ''}]",[]
"Sitara Systems, Inc",Tier 1 Local Emerging Small Business,,,,https://sitara.systems/,9776 Sweet Jasmine Drive,Las Vegas,89148,Tier 1 Local Emerging Small Business,"[{'NAICS Code': '541511', 'Description': 'Custom Computer Programming Services', 'Capability': ''}]",[]
GOLDEN MFG LLC,Tier 1 Local Emerging Small Business,,,contact@goldenmfg.com,https://www.goldenmfg.com,7195 Bermuda Road,Las Vegas,89119,Tier 1 Local Emerging Small Business,"[{'NAICS Code': '314999', 'Description': 'All Other Miscellaneous Textile Product Mills', 'Capability': 'Embroidering on textile products or apparel for the trade'}]",[]
Downtown Louisiana Tamale Shop,Tier 1 Local Emerging Small Business,,,joy@dtlatamaleshop.com,https://www.dtlatamaleshop.com,2256 Losee Rd Suite E,n Las Vegas,89030,Tier 1 Local Emerging Small Business,"[{'NAICS Code': '722320', 'Description': 'Caterers', 'Capability': ''}]",[]
Federal Eagle Contracts LLC,Tier 1 Local Emerging Small Business,,,contact@federeagle.org,,4450 Flaming Ridge Trail,Las vegas,89147,Tier 1 Local Emerging Small Business,"[{'NAICS Code': '237990', 'Description': 'Other Heavy and Civil Engineering Construction', 'Capability': 'Subcontracting'}]",[]
Team Acme Inc.,Tier 2 Local Emerging Small Business,,,teran@teamacme.com,https://www.teamacme.com,"680 Professional Ave, Ste 101",Henderson,89015,Tier 2 Local Emerging Small Business,"[{'NAICS Code': '811122', 'Description': 'Auto Glass Replacement Shops', 'Capability': 'Auto Glass / Window Tinting / Paint Protection'}]",[]
Watch Security Services LLC,Tier 1 Local Emerging Small Business,,,mickle@lvwatchsecurity.com,https://lvwatchsecurity.com,1167 Dana Maple Court,Las Vegas,89123,Tier 1 Local Emerging Small Business,"[{'NAICS Code': '561612', 'Description': 'Security Guard Services', 'Capability': 'Security Guard and Patrol Services'}]",[]
Pedaog Cleaning Company LLC,Tier 1 Local Emerging Small Business,,,pedaogcc2023@gmail.com,https://www.pedaog.com,3001 lake east Dr,Las Vegas,89117,Tier 1 Local Emerging Small Business,"[{'NAICS Code': '561720', 'Description': 'Janitorial Services', 'Capability': ''}]",[]
AKM Solutions Resource LLC,Tier 1 Local Emerging Small Business,,,,,"2620 Regatta Dr, Suite 102",Las Vegas,89128,Tier 1 Local Emerging Small Business,"[{'NAICS Code': '541611', 'Description': 'Administrative Management and General Management Consulting Services', 'Capability': ''}]",[]
Deuces Duct Cleaning,Tier 1 Local Emerging Small Business,,,,,301 Julie Cir,Las Vegas,89107-1215,Tier 1 Local Emerging Small Business,"[{'NAICS Code': '561790', 'Description': 'Other Services to Buildings and Dwellings', 'Capability': ''}]",[]
SaaS E Solutions,Tier 1 Local Emerging Small Business,,,info@saas-e-solututions.com,https://www.saas-e-solutions.com/,259 Chimney Rock Rd. B4979,Stateline,89449,Tier 1 Local Emerging Small Business,"[{'NAICS Code': '541511', 'Description': 'Custom Computer Programming Services', 'Capability': 'Custom web / mobile / desktop programming, CRM (SalesForce, Hubspot, Pipedrive and more),'}]",[]
"Residual Studios, LLC",Tier 1 Local Emerging Small Business,,,,https://residualstudios.com/,400 S 4th Street Suite 500,Las Vegas,89101,Tier 1 Local Emerging Small Business,"[{'NAICS Code': '541430', 'Description': 'Graphic Design Services', 'Capability': 'Creative, Graphic, and Video Design'}]",[]
"Carroll Design Collaborative, LLC",Tier 1 Local Emerging Small Business,,,john@carroll.design,https://carroll.design,"1980 Festival Plaza Drive, Suite 450",Las Vegas,89135,Tier 1 Local Emerging Small Business,"[{'NAICS Code': '541310', 'Description': 'Architectural Services', 'Capability': 'Architectural Design, planning, entitlement services, construction observation'}]",[]
Door Specialist of Southern Nevada LLC,Tier 2 Local Emerging Small Business,,,,https://doorspecialistnv.com/,"3095 E. Patrick Lane, Suite 13",Las Vegas,89120,Tier 2 Local Emerging Small Business,"[{'NAICS Code': '423310', 'Description': 'Doors and door frames merchant wholesalers', 'Capability': 'Door and Frame Supply'}]",[]
"Yo’s Southern Catering, LLC",Tier 1 Local Emerging Small Business,,,info@yossoutherncatering.com,https://www.yossoutherncatering.net,2654 W. Horizon Ridge Parkway Ste-Be #2047,Henderson,89052,Tier 1 Local Emerging Small Business,"[{'NAICS Code': '722320', 'Description': 'Caterer', 'Capability': ''}]",[]
"MacroHydro, LLC",Tier 1 Local Emerging Small Business,,,,https://macrohydro.com,2110 Overland Park Drive,Reno,89521,Tier 1 Local Emerging Small Business,"[{'NAICS Code': '511210', 'Description': 'Software Publishers', 'Capability': 'Applications development and publishing, except on a custom basis'}]",[]
Global Supreme LLC,Tier 1 Local Emerging Small Business,,,sumikojoiner@gmail.com,https://N/A,3304 Misty Cloud CT,Las Vegas,89129,Tier 1 Local Emerging Small Business,"[{'NAICS Code': '541611', 'Description': 'Administrative Management and General Management Consulting Services.', 'Capability': 'Women owned small business strive for excellence in providing service that assist in solving problems, making recommendations, and providing information.'}]",[]
Entech Oil Inc.,Tier 1 Local Emerging Small Business,,,morganf@tomlinscientific.com,https://entechoil.com/,34 Parco Fiore Court,Henderson,89011,Tier 1 Local Emerging Small Business,"[{'NAICS Code': '424720', 'Description': 'Petroleum and Petroleum Products Merchant Wholesalers (except Bulk Stations and Terminals)', 'Capability': 'Reseller of motor oils, greases, lubricants'}]",[]
Desert Elite Management LTD,Tier 1 Local Emerging Small Business,,,,,1820 Double Delight Ave.,North Las Vegas,89032,Tier 1 Local Emerging Small Business,"[{'NAICS Code': '2362', 'Description': 'Nonresidential Building Construction', 'Capability': 'General Contractor'}]",[]
Clean and Mean Services LLC,Tier 1 Local Emerging Small Business,,,info@cleanandmeanwindows.com,https://cleanandmeanwindows.com,2510 Morocco Ave,Las Vegas,89031,Tier 1 Local Emerging Small Business,"[{'NAICS Code': '561790', 'Description': 'Building exterior cleaning services (except sandblasting, window cleaning)', 'Capability': 'Building exterior cleaning services (except sandblasting, window cleaning), Driveway cleaning (e.g., power sweeping, washing) services, Pressure washing (e.g., buildings, decks, fences),'}]",[]
Every Step and Beyond LLC,Tier 1 Local Emerging Small Business,,,admin@everystepandbeyond.com,https://www.brand.page/everystepandbeyond.com,3838 Raymert Drive,Las Vegas,89121,Tier 1 Local Emerging Small Business,"[{'NAICS Code': '624310', 'Description': 'Vocational Rehabilitation Services', 'Capability': 'Habilitation job counseling and training, vocational'}]",[]
"Revolution AMC, LLC",Tier 1 Local Emerging Small Business,,,,https://www.revolutionamc.com,"8635 W Sahara Ave, #711",Las Vegas,89117,Tier 1 Local Emerging Small Business,"[{'NAICS Code': '611710', 'Description': 'Educational Testing services', 'Capability': 'Licensure and certification exam development'}]",[]
Lara’s Logos & Embroidery LLC,Tier 1 Local Emerging Small Business,,,info@laraslogos.net,https://www.laraslogos.net,4025 S DEAN MARTIN DR,LAS VEGAS,89103-4138,Tier 1 Local Emerging Small Business,"[{'NAICS Code': '424310', 'Description': 'Embroidery products merchant wholesalers', 'Capability': 'custom embroidery'}]",[]
Supreme Tech Consulting L.L.C.,Tier 1 Local Emerging Small Business,,,dnance@supremetechconsulting.com,,548 Front Range Lane,North Las Vegas,89084,Tier 1 Local Emerging Small Business,"[{'NAICS Code': '541519', 'Description': 'Other Computer Related Services', 'Capability': ''}]",[]
Great Basin Little Enterprise LLC,Tier 1 Local Emerging Small Business,,,jason@science.dev,https://science.dev,6717 Rolling Meadows Dr. #2018,Sparks,89436,Tier 1 Local Emerging Small Business,"[{'NAICS Code': '513210', 'Description': 'Software Publishers', 'Capability': 'SaaS Platforms, Data Products, Mobile, Web and Desktop Applications'}]",[]
H&R SERVICES LLC,Tier 1 Local Emerging Small Business,,,hrservicescudom@gmail.com,,4522 Lindale Ave,Las vegas,89121,Tier 1 Local Emerging Small Business,"[{'NAICS Code': '561720', 'Description': 'Janitorial Services', 'Capability': 'CLEANING SERVICES'}]",[]
"Macrotec Consulting, LLC",Tier 1 Local Emerging Small Business,,,Office@macrotecconsulting.com,https://macrotecconsulting.com/,9724 Mild Weather Court,Las Vegas,89148,Tier 1 Local Emerging Small Business,"[{'NAICS Code': '541620', 'Description': 'Environmental Consulting Services', 'Capability': ''}]",[]
"MetzNV, LLC",Tier 1 Local Emerging Small Business,,,reno@smashmytrash.com,https://www.smashmytrash.com/reno,12635 Water Lily Way,Reno,89511,Tier 1 Local Emerging Small Business,"[{'NAICS Code': '561210', 'Description': 'Facilities Waste Management', 'Capability': 'Waste Compaction, Environmental Services'}]",[]
Vegas Freight Company,Tier 1 Local Emerging Small Business,,,john@mccarrierllc.com,,3033 Losee Rd,North Las Vegas,89030,Tier 1 Local Emerging Small Business,"[{'NAICS Code': '484110', 'Description': 'General Freight Trucking, Local', 'Capability': ''}]",[]
"Pertinence, LLC",Tier 1 Local Emerging Small Business,,,corp@pertinencellc.com,https://www.pertinencellc.com,3535 Executive Terminal Drive Suite 110,Henderson,89052,Tier 1 Local Emerging Small Business,"[{'NAICS Code': '541690', 'Description': 'Other Scientific and Technical Consulting Services', 'Capability': ''}]",[]
Leading Change – Leadership Readiness Entrepreneur Workshop,Tier 1 Local Emerging Small Business,,,lclw4u@gmail.com,https://lclw.org,9301 Brilliant Ore Dr,Las Vegas,89143,Tier 1 Local Emerging Small Business,"[{'NAICS Code': '624310', 'Description': 'Vocational Rehabilitation Services', 'Capability': 'Establishments primarily engaged in providing vocational rehabilitation. Learning and Development.'}]",[]
Bighorn Fabworks,Tier 1 Local Emerging Small Business,,,,,1540 Linda Way,Sparks,89431,Tier 1 Local Emerging Small Business,"[{'NAICS Code': '238220', 'Description': 'Plumbing, Heating, and Air-Conditioning Contractors', 'Capability': 'Installation of Plumbing, Heating, and Air-Conditioning equipment, piping and supports'}]",[]
Citywide Electric & Maintenance LLC,Tier 1 Local Emerging Small Business,,,citywideelectric.maint@gmail.com,https://www.citywideelectriclv.com/,3453 Blue Ash Lane,Las Vegas,89122,Tier 1 Local Emerging Small Business,"[{'NAICS Code': '238210', 'Description': 'Electrical Contractors and Other Wiring Installation Contractors', 'Capability': 'Electrical Contractor'}]",[]
Grazingbelles LLC,Tier 1 Local Emerging Small Business,,,grazingbelles@gmail.com,https://www.grazingbelles.com,4213 Stonebridge Lane,Las Vegas,89108,Tier 1 Local Emerging Small Business,"[{'NAICS Code': '722320', 'Description': 'Caterers', 'Capability': ''}]",[]
CognoCo LLC,Tier 1 Local Emerging Small Business,,,contact@cognocollc.com,https://www.cognocollc.com,11700 W Charleston Blvd. #170-634,Las Vegas,89135,Tier 1 Local Emerging Small Business,"[{'NAICS Code': '459420', 'Description': 'Gift, novelty and souvenir retailers', 'Capability': '8 years experience overseeing the design, development and production of novelty and gift items'}]",[]
Lovelock Highspeed,Tier 1 Local Emerging Small Business,,,info@lovelockhighspeed.com,https://www.lovelockhighspeed.com,410 West Broadway,Lovelock,89419,Tier 1 Local Emerging Small Business,"[{'NAICS Code': '517112', 'Description': 'Wireless Telecommunications Carriers (except Satellite)', 'Capability': ''}]",[]
JQF Design & Print LLC,Tier 1 Local Emerging Small Business,,,support@jqfdesigns.com,https://www.jqfdesigns.com,1925 Village Center Circle #150,Las Vegas,89134,Tier 1 Local Emerging Small Business,"[{'NAICS Code': '541613', 'Description': 'Marketing Consulting Services', 'Capability': ''}]",[]
"Iskah Financial Services, LLC",Tier 1 Local Emerging Small Business,,,iskah.financial@gmail.com,https://drjessicaparks.com,7822 Tay River Court,Las Vegas,89166,Tier 1 Local Emerging Small Business,"[{'NAICS Code': '54172', 'Description': 'Research and Development in the Social Sciences and Humanities', 'Capability': 'Research on household finance'}]",[]
"Certify My Company, Inc.",Tier 1 Local Emerging Small Business,,,kelly@certifymycompany.com,https://Certify My Company,209 S. Stephanie Street B292,Henderson,89012,Tier 1 Local Emerging Small Business,"[{'NAICS Code': '541618', 'Description': 'Other Management Consulting Services', 'Capability': 'Certify my company is the comprehensive, consolidated, service provider for supplier diversity programs looking to increase their reportable spend without increasing their supplier base'}]",[]
Las Vegas Robotics LLC,Tier 1 Local Emerging Small Business,,,tom.laplante@robotlab.com,https://www.robotlab.com/las-vegas,6000 S Eastern Ave. Suite 7C,Las Vegas,89119,Tier 1 Local Emerging Small Business,"[{'NAICS Code': '423830', 'Description': 'General purpose industrial machinery and equipment merchant wholesalers', 'Capability': 'Sales and Service'}]",[]
Flamingo Cleaning Services LLC,Tier 1 Local Emerging Small Business,,,contact.fcleaningservices@gmail.com,,3127 Panocha St,Las Vegas,89121,Tier 1 Local Emerging Small Business,"[{'NAICS Code': '561720', 'Description': 'Janitorial Services', 'Capability': ''}]",[]
Nova Communications LLC,Tier 1 Local Emerging Small Business,,,,,9253 Briggs Hill Ct,Las Vegas,89139,Tier 1 Local Emerging Small Business,"[{'NAICS Code': '238210', 'Description': 'Electrical Contractors and Other Wiring Installation Contractors', 'Capability': 'Telecommunications equipment and wiring (except transmission line) installation contractors'}]",[]
CloudCORO,Tier 1 Local Emerging Small Business,,,,https://cloudcoro.com,2505 Anthem Village Dr. STE E #411,Henderson,89052,Tier 1 Local Emerging Small Business,"[{'NAICS Code': '541511', 'Description': 'Custom Computer Programming Services', 'Capability': 'Computer software support services, custom'}]",[]
"Tacotarian at Home, LLC",Tier 1 Local Emerging Small Business,,,support@eattacotarian.com,https://www.eattacotarian.com/retail,1130 S. Casino Center Blvd. #170,Las Vegas,89104,Tier 1 Local Emerging Small Business,"[{'NAICS Code': '311999', 'Description': 'All Other Miscellaneous Food Manufacturing', 'Capability': 'plant-based taco fillings'}]",[]
ST Huerta Four Square Clinicals Professional Corporation,Tier 1 Local Emerging Small Business,,,info@fsclinicals.com,https://www.fsclinicals.com,343 Elm Street Suite 308,Reno,89503,Tier 1 Local Emerging Small Business,"[{'NAICS Code': '621399', 'Description': 'Offices of All Miscellaneous Health Practitioners', 'Capability': 'Mental health and substance use treatment facility..'}]",[]
Kin Beauty Supply Store LLC,Tier 1 Local Emerging Small Business,,,kinbeautyonline@gmail.com,https://Kinbeautysupplystore.com,642 E Horizon Drive,Suite 120,Nevada,Tier 1 Local Emerging Small Business,"[{'NAICS Code': '456120', 'Description': 'Cosmetics, Beauty Supplies, and Perfume Retailers', 'Capability': '456120'}]",[]
"SOS Toner Supply, LLC",Tier 1 Local Emerging Small Business,,,rbrown@sostonersupply.com,https://www.sostonersupply.com,5197 Stacey Ave,Las Vegas,89108,Tier 1 Local Emerging Small Business,"[{'NAICS Code': '532420', 'Description': 'Office Machinery and Equipment Rental and Leasing', 'Capability': 'Lease and sell equipment'}]",[]
NOVUS Architecture LLC,Tier 2 Local Emerging Small Business,,,dwayne@novusarchitecture.com,https://www.novusarchitecture.com,900 S. Las Vegas Boulevard,Las Vegas,89101,Tier 2 Local Emerging Small Business,"[{'NAICS Code': '541310', 'Description': 'Architectural Services', 'Capability': 'Professional Services'}]",[]
Strategic Worldwide Procurement,Tier 1 Local Emerging Small Business,,,yvonne@strategicworldwideprocurement.com,,1692,Wicklow Way,Henderson,Tier 1 Local Emerging Small Business,"[{'NAICS Code': '425120', 'Description': 'Wholesale Trade Agents and Brokers', 'Capability': 'Business to Business Electronic Markets'}]",[]
Quality Construction Managers L.L.C.,Tier 1 Local Emerging Small Business,,,,https://www.qcmllc.net,1011 Industrial Rd. #5,Boulder City,89005,Tier 1 Local Emerging Small Business,"[{'NAICS Code': '236115', 'Description': 'Residential construction, single-family, general contractors', 'Capability': 'All aspects'}]",[]
The Creative Mill LLC,Tier 1 Local Emerging Small Business,,,info@thecreativemill.co,https://www.thecreativemill.co,304 S. Jones Blvd #7979,Las Vegas,89107,Tier 1 Local Emerging Small Business,"[{'NAICS Code': '711320', 'Description': 'Promoters of Performing Arts, Sports, and Similar Events without Facilities', 'Capability': 'Managing logistics and operations of conferences, festivals and large scale events'}]",[]
CAPE Corporation,Tier 2 Local Emerging Small Business,,,hello@divinefence.com,https://divinefence.com,8725 Lindell Rd Ste 100,Las Vegas,89139,Tier 2 Local Emerging Small Business,"[{'NAICS Code': '238990', 'Description': 'All Other Specialty Trade Contractors', 'Capability': 'Fencing Contractor'}]",[]
"realizeyoucoaching, LLC",Tier 1 Local Emerging Small Business,,,rachel@realizeyoucoaching.con,https://www.realizeyoucoachibg.com,2475 CRYSTAL SHIP COURT,HENDERSON,89052,Tier 1 Local Emerging Small Business,"[{'NAICS Code': '611430', 'Description': 'Professional and Management Development Training', 'Capability': 'In-person and virtual training, workshops, keynote speaking, facilitation'}]",[]
Advanced Biological Consulting,Tier 1 Local Emerging Small Business,,,bafferta@cox.net,https://Advancedbiocon.com,322 Karen Avenue #1207,Las Vegas,89109,Tier 1 Local Emerging Small Business,"[{'NAICS Code': '541620', 'Description': 'Environmental Consulting Services', 'Capability': ''}]",[]
Kimberly Shworles,Tier 1 Local Emerging Small Business,,,Sincityhomeservices@gmail.com,https://Sincityhomeservices.com,6531 W El Campo Grande Ave,Las Vegas,89130,Tier 1 Local Emerging Small Business,"[{'NAICS Code': '561720', 'Description': 'Residential Cleaning service', 'Capability': 'Cleaning of interior home surfaces and disinfecting'}]",[]
"WET VET, LLC",Tier 1 Local Emerging Small Business,,,hjesse96@yahoo.com,https://www.wetvet.com,1080 LINDA WAY,SPARKS,89431,Tier 1 Local Emerging Small Business,"[{'NAICS Code': '484110', 'Description': 'General Freight Trucking, Local', 'Capability': 'water truck/dump truck services'}]",[]
Cleaning Bee LLC,Tier 1 Local Emerging Small Business,,,Cleaningbeenv@gmail.com,https://cleaningbeenv.com,3495 Lakeside Drive #1256,Reno,89509,Tier 1 Local Emerging Small Business,"[{'NAICS Code': '561720', 'Description': 'Building cleaning services, janitorial', 'Capability': ''}]",[]
DSK COMMUNICATIONS LLC,Tier 1 Local Emerging Small Business,,,michelle@gritenterpriseslv.com,https://www.gritenterpriseslv.com,7465 W Lake Mead Blvd Ste 100,Las Vegas,89128,Tier 1 Local Emerging Small Business,"[{'NAICS Code': '238210', 'Description': 'Electrical Contractors and Other Wiring Installation Contractors', 'Capability': 'Low Voltage Contractor'}]",[]
"Aram for Modern Technology, Inc",Tier 1 Local Emerging Small Business,,,,https://www.arelevatorusa.com,4345 Corporate Center Dr. Suite 203,N. Las Vegas,89030,Tier 1 Local Emerging Small Business,"[{'NAICS Code': '238990', 'Description': 'All Other Specialty Trade Contractors', 'Capability': 'Elevator maintenance, installation, repair, and modernization'}]",[]
9th Island Vending LLC,Tier 1 Local Emerging Small Business,,,9thislandvending@gmail.com,https://www.9thislandvending.com,5818 Falling Stream Ave,Las Vegas,89131,Tier 1 Local Emerging Small Business,"[{'NAICS Code': '445132', 'Description': 'Vending Machine Operators', 'Capability': 'Vending machine merchandisers, sale of products, Service Vending Machines with Snacks and Drinks'}]",[]
"Walsh Certified Consultants, Inc.",Tier 1 Local Emerging Small Business,,,,https://www.walshcih.com,11 Clearview Ave,Las Vegas,89124-9259,Tier 1 Local Emerging Small Business,"[{'NAICS Code': '541620', 'Description': 'Environmental Consulting Services', 'Capability': 'Occupational & Environmental Health and Safety Consulting Services'}]",[]
"LitGear, LLC",Tier 1 Local Emerging Small Business,,,info@litgearshop.com,https://litgearshop.com,2219 Tulip Tree Street,Las Vegas,89135,Tier 1 Local Emerging Small Business,"[{'NAICS Code': '315990', 'Description': 'Apparel Accessories and Other Apparel Manufacturing', 'Capability': ''}]",[]
Boston Holdings LLC,Tier 1 Local Emerging Small Business,,,justin@btvmarketing.com,https://www.btvmarketing.com,"10845 W Griffith Peak Dr, Suite 200",Las Vegas,89135,Tier 1 Local Emerging Small Business,"[{'NAICS Code': '541613', 'Description': 'Marketing Services', 'Capability': 'Marketing Services'}]",[]
"Informed Choices Employment Services, LLC.",Tier 1 Local Emerging Small Business,,,,,1290 W Horizon Ridge Pwky apt 1121,Henderson,89012,Tier 1 Local Emerging Small Business,"[{'NAICS Code': '624310', 'Description': 'Vocational Rehabilitation Services', 'Capability': 'Providing training and employment to persons with disabilities.'}]",[]
THUMBS UP Cleaning & JANITORIAL LLC,Tier 1 Local Emerging Small Business,,,thumzup.jc@yahoo.com,https://Thumbsupcleaningandjanitorialllc.com,2711 San Gorgonio street,Las Vegas,89115,Tier 1 Local Emerging Small Business,"[{'NAICS Code': '561720', 'Description': 'Janitorial Services', 'Capability': 'cleaning and janitorial services'}]",[]
"Chesspiece, LLC",Tier 1 Local Emerging Small Business,,,chesspiecellc@gmail.com,"https://www,chesspiecemoving.com",7534 Earnshaw Drive,Las Vegas,89179,Tier 1 Local Emerging Small Business,"[{'NAICS Code': '484210', 'Description': 'Used Household and Office Goods Moving', 'Capability': ''}]",[]
BDIntegration LLC,Tier 1 Local Emerging Small Business,,,support@datasystemslv.com,http://datasystemslv.com,331 Mount Hope St,Henderson,89014,Tier 1 Local Emerging Small Business,"[{'NAICS Code': '238210', 'Description': 'Electrical Contractors and Other Wiring Installation Contractors', 'Capability': 'Electronic and Communication installations'}]",[]
"Incline Technology Consulting, LLC",Tier 1 Local Emerging Small Business,,,support@incline.technology,https://incline.technology,4050 S. Mccarran Suite C,Reno,89502,Tier 1 Local Emerging Small Business,"[{'NAICS Code': '541513', 'Description': 'Computer Facilities Management Services', 'Capability': ''}]",[]
Spotless Solution Comercial Cleaning LLC,Tier 1 Local Emerging Small Business,,,spotlesssolutioncclv@gmail.com,,6608 Old Oxford Ave,Las Vegas,89108,Tier 1 Local Emerging Small Business,"[{'NAICS Code': '561720', 'Description': 'Building Cleaning Services, interior', 'Capability': ''}]",[]
Tembo LLC,Tier 1 Local Emerging Small Business,,,llctembo@gmail.com,https://tembocleaning.com,5661 Lucky Draw Ct,Las Vegas,89122,Tier 1 Local Emerging Small Business,"[{'NAICS Code': '561720', 'Description': 'Janitorial Services', 'Capability': 'Janitorial Services, Cabana Cleaning and Power Washing'}]",[]
EMPLOYER LYNX INC.,Tier 2 Local Emerging Small Business,,,,https://WWW.EMPLOYERLYNX.COM,501 E. CAROLINE ST.,CARSON CITY,89701,Tier 2 Local Emerging Small Business,"[{'NAICS Code': '561611', 'Description': 'Investigation and Personal Background Check Services', 'Capability': 'BACKGROUND SCREENINGS'}]",[]
"Star Systems, LLC",Tier 1 Local Emerging Small Business,,,vanessa@starsystems.eco.com,https://starsystems.eco,2447 El Paseo Circle,Las Vegas,89121,Tier 1 Local Emerging Small Business,"[{'NAICS Code': '541720', 'Description': 'Research and Development in the Social Sciences and Humanities', 'Capability': ''}]",[]
"Draco Logistics, LLC",Tier 1 Local Emerging Small Business,,,support@dracologisticsllc.com,https://www.dracologisticsllc.com,8129 Bay Colony St,Las Vegas,89131,Tier 1 Local Emerging Small Business,"[{'NAICS Code': '488510', 'Description': 'Freight Transportation Arrangement', 'Capability': 'Capable of retrieving and delivering any goods and/or merchandise to its final destination'}]",[]
LESS Temps LLC,Tier 1 Local Emerging Small Business,,,Lynn.Griggs@lesstempsllc2.com,"https://www,less-temps-llc.com",2741 Laguna Seca Ave,Henderson,89052,Tier 1 Local Emerging Small Business,"[{'NAICS Code': '561311', 'Description': 'Employment Placement Agencies', 'Capability': 'Staffing, Recruiting'}]",[]
Tree Trim LLC,Tier 1 Local Emerging Small Business,,,,,3470 Frank Derek Avenue,Las Vegas,89139,Tier 1 Local Emerging Small Business,"[{'NAICS Code': '561730', 'Description': 'Landscape Contractor', 'Capability': 'Maintenance, Design, Installation of Landscaping'}]",[]
"End of the Rainbow Projects, Inc.",Tier 1 Local Emerging Small Business,,,info@pathtopublishing.com,https://www.pathtopublishing.com,"9850 South Maryland Pkwy, Ste. A5-570",Las Vegas,89183,Tier 1 Local Emerging Small Business,"[{'NAICS Code': '541990', 'Description': 'All Other Professional, Scientific, and Technical Services', 'Capability': 'Entrepreneur/Small Business Support'}]",[]
"Loud Mouth Ventures, LLC",Tier 1 Local Emerging Small Business,,,valorie@loudmouthventures.com,https://loudmouthventures.com,"401 Ryland St, STE 200-A",Reno,89502,Tier 1 Local Emerging Small Business,"[{'NAICS Code': '541490', 'Description': 'Other Specialized Design Services', 'Capability': 'Social Media Consulting and Management'}]",[]
M Solutions Partners LLC,Tier 1 Local Emerging Small Business,,,larry@msolutionpartners.com,https://www.msolutionpartners.com,5372 Tulip Hill Ave,Las Vegas,89141,Tier 1 Local Emerging Small Business,"[{'NAICS Code': '541512', 'Description': 'Computer Systems Design Services', 'Capability': ""Capabilities Narrative for M Solution Partners  M Solution Partners is a leading consulting and technology firm that specializes in providing solutions based on Microsoft technologies and COBOL. Our team of experienced consultants and developers offer.  a wide range of capabilities to help our clients achieve their business objectives.  Our Capabilities include:  Microsoft Technologies: We specialize in developing solutions based on Microsoft technologies such as .NET, SharePoint, C#, Dynamics 365, and Power Platform. Our team of developers use the latest tools and best practices to deliver high-quality applications that are reliable, scalable, and secure.  COBOL Modernization: M Solution Partners capitalizes on Microsoft's cloud modernization infrastructures to help our clients modernize their legacy COBOL applications. Our team of experts use modernization techniques such as re-hosting, re-engineering, and refactoring to transform legacy COBOL applications into modern, cloud-based solutions. M Solution helps clients seamlessly migrate from COBOL to Microsoft modern technologies, unlocking enhanced efficiency and scalability. Leveraging services such as Azure App Service, Azure Functions, and Azure Kubernetes Service, M Solution enables businesses to modernize their applications. Microsoft's advanced security measures ensure the protection of sensitive data. With M Solution's expertise in Microsoft cloud modernization, businesses can confidently embrace the digital era, accelerating their transformation journey and realizing sustainable success. Cloud Services: We provide cloud-based solutions based on Microsoft Azure that are designed to help our clients reduce costs, increase efficiency, and improve collaboration. We offer a range of cloud services, including infrastructure-as-a-service (IaaS), platform-as-a-service (PaaS), and software-as-a-service (SaaS).  Data Analytics: We help our clients leverage the power of data to make informed business decisions. Our team of data analysts use advanced analytics tools to extract insights from large datasets, helping clients to identify trends, patterns, and opportunities.  Digital Transformation: We help our clients embrace digital technologies to transform their businesses. Our team of experts work with clients to design and implement digital strategies that drive innovation and improve customer experiences.  IT Consulting: We provide IT consulting services that help clients optimize their IT infrastructure, reduce costs, and improve performance. Our team of experts work with clients to identify areas for improvement, develop solutions, and implement best practices.  Project Management: We provide project management services to ensure that our clients’ projects are delivered on time, within budget, and to the highest quality. Our team of project managers work closely with clients to understand their needs, develop project plans, and oversee project execution.""}]",[]
SPEAK LIFE LLC,Tier 1 Local Emerging Small Business,,,sl@speaklifeus.com,https://sl.speaklifeus.com,"8915 Alexander Great Ct, Las Vegas, NV 89139",LAS VEGAS,89139,Tier 1 Local Emerging Small Business,"[{'NAICS Code': '561990', 'Description': 'All Other Support Services', 'Capability': 'We take pride in bridging the gap for Government needs with qualified vendors in relation with products and services'}]",[]
Elizbiz Limited Liability Company,Tier 1 Local Emerging Small Business,,,gichangae@elizbiz.com,,6436 EXTREME SHEAR AVE Unit 103,Henderson,89011,Tier 1 Local Emerging Small Business,"[{'NAICS Code': '621610', 'Description': 'Home Health Care Services', 'Capability': 'Skilled Nursing Services'}]",[]
Express Home Services,Tier 2 Local Emerging Small Business,,,support@callexpress.com,https://www.callexpress.com,3373 Wynn Rd Suite E,Las Vegas,89102,Tier 2 Local Emerging Small Business,"[{'NAICS Code': '238220', 'Description': 'Plumbing Heating and Air Conditioning Contractor', 'Capability': 'All plumbing heating and air conditioning repairs and replacements'}]",[]
G-Tec LLC,Tier 1 Local Emerging Small Business,,,info@ghforyou.com,https://www.g-tecllc.com,8275 South Eastern Avenue,Las Vegas,89123,Tier 1 Local Emerging Small Business,"[{'NAICS Code': '541519', 'Description': 'Other Computer Related Services', 'Capability': 'Tech Support and Installation of Computers & AV'}]",[]
Exquisite Procurement LLC,Tier 1 Local Emerging Small Business,,,,https://www.exquisiteprocurement.com,1448 Lawry Avenue,Las Vegas,89106,Tier 1 Local Emerging Small Business,"[{'NAICS Code': '425120', 'Description': 'Wholesale trade agents and brokers', 'Capability': ''}]",[]
Taylor Project Services LLC,Tier 1 Local Emerging Small Business,,,,https://www.taylorprojectservicesllc.com,10761 Turquoise Valley Drive,Las Vegas,89144,Tier 1 Local Emerging Small Business,"[{'NAICS Code': '5416990', 'Description': 'Management, Technical, Scientific Consulting Services', 'Capability': 'Cost and Schedule Management for Projects'}]",[]
Bold and Bright Academy,Tier 1 Local Emerging Small Business,,,boldandbrightacademy@gmail.com,https://Boldandbrightacademy.com,6036 Atlantis Dream Ave,Las Vegas,89139,Tier 1 Local Emerging Small Business,"[{'NAICS Code': '611691', 'Description': 'Exam Preparation and Tutoring', 'Capability': 'Online Learning platform for 2-6 year olds'}]",[]
M&M Signs and Printing Corp,Tier 1 Local Emerging Small Business,,,SALES@PRISMAPRINTING.COM,https://PRISMAPRINTING.COM,5000 W OAKEY BLVD. B4,Las Vegas,89146,Tier 1 Local Emerging Small Business,"[{'NAICS Code': '323111', 'Description': 'Commercial digital printing', 'Capability': ''}]",[]
"Mesquite Materials Testing, LLC",Tier 2 Local Emerging Small Business,,,,https://www.mmtnevada.com,752 W. Pioneer Blvd.,Mesquite,89027,Tier 2 Local Emerging Small Business,"[{'NAICS Code': '541380', 'Description': 'Soils Testing Laboratories or Services', 'Capability': ''}]",[]
"TABITT, LLC",Tier 1 Local Emerging Small Business,,,info@tabittgroup.com,https://tabittgroup.com,301 JULIE CIRCLE,LAS VEGAS,89107,Tier 1 Local Emerging Small Business,"[{'NAICS Code': '238220', 'Description': 'Plumbing, Heating, and Air-Conditioning Contractors', 'Capability': 'TEST & BALANCE OF HVAC'}]",[]
Sparkflight Studios LLC,Tier 1 Local Emerging Small Business,,,sparkflightstudios@gmail.com,https://sparkflightstudios.com/,1192 Wigwam Pkwy,Henderson,89074,Tier 1 Local Emerging Small Business,"[{'NAICS Code': '541310', 'Description': 'Architectural Services', 'Capability': 'Architectural Design, Preparation of Permit and bid sets, Construction administration, Public Art'}]",[]
Oliver Davis Consulting,Tier 1 Local Emerging Small Business,,,admin@oliverdavisconsulting.com,https://www.oliverdavisconsulting.com,6256 SMALL POINT DRIVE,Las Vegas,89108,Tier 1 Local Emerging Small Business,"[{'NAICS Code': '541611', 'Description': 'Administratvie Management and General Management Consulting Services', 'Capability': 'Business Consulting'}]",[]
Morrison Staffing Services LLC,Tier 1 Local Emerging Small Business,,,morrisonstaffingservicesllc@gmail.com,,7055 E Lake Mead Blvd,Las Vegas,89156,Tier 1 Local Emerging Small Business,"[{'NAICS Code': '561320', 'Description': 'Staffing Services Agency', 'Capability': ''}]",[]
"Lefrancois Engineering, PLLC",Tier 1 Local Emerging Small Business,,,info@l-eng.com,https://l-eng.com,"288 Village Blvd., Suite 5",Incline Village,89451,Tier 1 Local Emerging Small Business,"[{'NAICS Code': '541330', 'Description': 'Engineering Services', 'Capability': 'Civil Engineering Services'}]",[]
03 Green Global Solutions,Tier 1 Local Emerging Small Business,,,info@propertyprosnv.com,,6295 Harrison Drive Ste 1,Las Vegas,89120,Tier 1 Local Emerging Small Business,"[{'NAICS Code': '561790', 'Description': 'Pressure washing (e.g., buildings, decks, fences)', 'Capability': 'Pressure Washing/Graffiti Removal'}]",[]
Kids Meeting Kids,Tier 1 Local Emerging Small Business,,,kidsmeetingkids@mail.com,https://kmeetingk.com,"1200 W Cheyenne Ave, 1159",North Las Vegas,89030,Tier 1 Local Emerging Small Business,"[{'NAICS Code': '624110', 'Description': 'Child and Youth Services', 'Capability': 'Child Service Playdates'}]",[]
Artisan Software Consulting,Tier 1 Local Emerging Small Business,,,jim@artisanagility.com,https://artisanagility.com,5729 North White Sands Road,Reno,89511,Tier 1 Local Emerging Small Business,"[{'NAICS Code': '541618', 'Description': 'Other Management Consulting Services', 'Capability': 'Training/Coaching'}]",[]
MNGR LLC,Tier 1 Local Emerging Small Business,,,info@mngragency.com,https://mngragency.com,1925 Village Center Cir Ste 150,Las Vegas,89134,Tier 1 Local Emerging Small Business,"[{'NAICS Code': '541613', 'Description': 'Marketing Consulting', 'Capability': 'Marketing Services & Consulting'}]",[]
Western Priority Equipment LLC.,Tier 1 Local Emerging Small Business,,,,https://Westernpriorityequipment.com,12992 State Highway 160,Las Vegas,89161,Tier 1 Local Emerging Small Business,"[{'NAICS Code': '562991', 'Description': 'Toilet Renting and/or Servicing, Portable', 'Capability': 'Rental of portable restrooms, shower & handwashing stations'}]",[]
"Shadow’s Realm 3D, LLC",Tier 1 Local Emerging Small Business,,,shadowsrealmshop@outlook.com,https://shadowsrealm3d.etsy.com,6721 Yellowwood Cove St,North Las Vegas,89084,Tier 1 Local Emerging Small Business,"[{'NAICS Code': '333248', 'Description': 'All Other Industrial Machinery Manufacturing', 'Capability': '3D Printing Services'}]",[]
Futureproof Branding,Tier 1 Local Emerging Small Business,,,,,3361 Caldora Ln,Henderson,89044,Tier 1 Local Emerging Small Business,"[{'NAICS Code': '541430', 'Description': 'Graphic Design Services', 'Capability': 'Branding, Brand Strategy & Positioning, Brand Identity, Graphic Design, Website Design'}]",[]
Reliable Cleaners Commercial LLC,Tier 1 Local Emerging Small Business,,,,,3502 Rio Robles Dr Unit D,North Las Vegas,89030,Tier 1 Local Emerging Small Business,"[{'NAICS Code': '561720', 'Description': 'Janitorial Services', 'Capability': ''}]",[]
"Swivel Commercial Interiors, LLC",Tier 1 Local Emerging Small Business,,,,https://www.swivelcommercial.com,2146 Silvered Bark Dr,Las Vegas,89135,Tier 1 Local Emerging Small Business,"[{'NAICS Code': '238390', 'Description': 'Office Furniture, Modular System, Installation', 'Capability': 'Office furniture, modular system, installation'}]",[]
The Auto Group Collision Center LLC,Tier 1 Local Emerging Small Business,,,claims@theautogroupcollisioncenter.com,https://www.theautogroupcollisioncenter.com,3043 Westwood DR,Las Vegas,89109,Tier 1 Local Emerging Small Business,"[{'NAICS Code': '811111', 'Description': 'General Automotive Repair', 'Capability': 'Automotive repair and Maintenance'}]",[]
M2M Carpentry and Installation LLC,Tier 1 Local Emerging Small Business,,,,,3673 E Biela Avenue,Las Vegas,89120,Tier 1 Local Emerging Small Business,"[{'NAICS Code': '238350', 'Description': 'Door and Window, Prefabricated, Installation', 'Capability': 'Able to remove and install any type of prefabricated window and door in new and existing construction.'}]",[]
KMJ 2.0 LLC,tier_one,,,start@kmjwebdesign.com,https://kmjwebdesign.com,6615 S. Eastern Ave. Suite 105,Las Vegas,89119,tier_one,"[{'NAICS Code': '541511', 'Description': 'Custom Computer Programming Services', 'Capability': 'Web Design/Mobile App Development'}]",[]
"Soma Group, LLC",Tier 1 Local Emerging Small Business,,,monika@srgre.com,https://somagrouprdc.com,"10161 Park Run Drive, Suite 150",Las Vegas,89145,Tier 1 Local Emerging Small Business,"[{'NAICS Code': '531390', 'Description': 'Other Activities Related to Real Estate', 'Capability': ""Real Estate Consulting and Gov't Procurement""}]",[]
Limon Strategy Group,Tier 1 Local Emerging Small Business,,,threelimones@gmail.com,,295 Blue Skies,Sparks,89436,Tier 1 Local Emerging Small Business,"[{'NAICS Code': '541611', 'Description': 'Administrative Management and General Management Consulting Services', 'Capability': ''}]",[]
Cofettii LLC,Tier 1 Local Emerging Small Business,,,,https://www.tilldeathdousparty.com,"701 E Bridger Ave, suite 140",Las Vegas,89101,Tier 1 Local Emerging Small Business,"[{'NAICS Code': '711320', 'Description': 'Promoters of Performing Arts, Sports, and Similar Events without Facilities', 'Capability': 'Event Planning'}]",[]
NB Cleaning Services LLC,Tier 1 Local Emerging Small Business,,,info@nbcleaningservicesllc.com,https://www.nbcleaningservicesllc.com,3612 Slapton Ave,North Las Vegas,89031,Tier 1 Local Emerging Small Business,"[{'NAICS Code': '561720', 'Description': 'primarily engaged in cleaning building interiors, interiors of transportation equipment (e.g., aircraft, rail cars, ships), and/or windows.', 'Capability': ''}]",[]
Elevate Print and Marketing LLC,Tier 1 Local Emerging Small Business,,,info@elevateuslv.com,,232 Crosswind Way,Las Vegas,89145,Tier 1 Local Emerging Small Business,"[{'NAICS Code': '323111', 'Description': 'Commercial Printing', 'Capability': '(except screen, books)'}]",[]
23 Auto Group,Tier 1 Local Emerging Small Business,,,23autogroup@gmail.com,https://23autogroup.com,4855 S Pecos Rd Unit 3,Las Vegas,89103,Tier 1 Local Emerging Small Business,"[{'NAICS Code': '441120', 'Description': 'Used car dealers', 'Capability': 'Automobile dealers, used only - Used car sales'}]",[]
Elevated Building,Tier 1 Local Emerging Small Business,,,QCarter@buildwithelevated.com,https://BuildwithElevated.com,6172 Exquisite Ave,Las Vegas,89110,Tier 1 Local Emerging Small Business,"[{'NAICS Code': '236220', 'Description': 'Commercial and Institutional Building Construction', 'Capability': 'Licensed B-General Building Contractor'}]",[]
Togos LV 1 LLC,Tier 1 Local Emerging Small Business,,,togoslasvegas@gmail.com,https://www.togoslasvegas.com,6435 S Rainbow BLVD Ste 103,Las Vegas,89118,Tier 1 Local Emerging Small Business,"[{'NAICS Code': '722513', 'Description': 'Sandwich shops, limited-service', 'Capability': 'Catering'}]",[]
Sierra Nevada Global Logistics LLC,Tier 1 Local Emerging Small Business,,,,https://snvgl.com,1650 O Farrell St,Reno,89503,Tier 1 Local Emerging Small Business,"[{'NAICS Code': '423430', 'Description': 'Computer and Computer Peripheral Equipment and Software Merchant Wholesalers', 'Capability': 'Value added procurement of computer and software products.'}]",[]
Sarah Thornton Public Relations Inc,Tier 1 Local Emerging Small Business,,,,https://www.connectedcommunications.com,"9339 W. Sunset Road, Suite 110",Las Vegas,89148,Tier 1 Local Emerging Small Business,"[{'NAICS Code': '541990', 'Description': 'All Other Professional, Scientific, and Technical Services', 'Capability': 'communications, marketing, public relations consulting'}]",[]
McGinnis & Associates,Tier 1 Local Emerging Small Business,,,ap@mcginnisandassociates.com,https://www.mcginnisandassociates.com,"65 Regency Way, STE C",Reno,89509,Tier 1 Local Emerging Small Business,"[{'NAICS Code': '541620', 'Description': 'Environmental Consulting Services', 'Capability': ''}]",[]
"Insite HR Solutions, LLC",Tier 1 Local Emerging Small Business,,,tanya.vial@insitehrsolutions.com,https://www.insitehrsolutions.com,"1000 N Green Valley Parkway, #440-801",Henderson,89074,Tier 1 Local Emerging Small Business,"[{'NAICS Code': '541612', 'Description': 'Human Resources Consulting Services', 'Capability': 'HR Consulting'}]",[]
Nellis Building Services,Tier 1 Local Emerging Small Business,,,,https://www.nellisvegas.com,3920 Raymert Drive,Las Vegas,89121,Tier 1 Local Emerging Small Business,"[{'NAICS Code': '561720', 'Description': 'Janitorial Services', 'Capability': 'Facility Services - Janitorial'}]",[]
"Knight & Leavitt Associates, Inc.",Tier 2 Local Emerging Small Business,,,,https://www.klaenv.com,4105 Wagon Trail Avenue,Las Vegas,89118,Tier 2 Local Emerging Small Business,"[{'NAICS Code': '813312', 'Description': 'Environment, Conservation and Wildlife Organizations', 'Capability': ''}]",[]
Justice Mobile Notary,Tier 1 Local Emerging Small Business,,,service@justicemobilenotary.com,https://www.justicemobilenotary.com,"540 W. Horizon Ridge Pkwy, 5501",Henderson,89012,Tier 1 Local Emerging Small Business,"[{'NAICS Code': '541199', 'Description': 'Notary Public Services', 'Capability': 'Mobile notary in clark county, online notary in all 50 states'}]",[]
Inclusive Counseling,Tier 1 Local Emerging Small Business,,,,https://www.inclusivecounseling.org,9441 Double Diamond Parkway STE 13,Reno,89521,Tier 1 Local Emerging Small Business,"[{'NAICS Code': '621420', 'Description': 'Mental Health Center and Clinic', 'Capability': ''}]",[]
Harvest Events LLC,Tier 1 Local Emerging Small Business,,,info@harvestelegance.com,https://www.harvestelegance.com,"2987 N Las Vegas Blvd, Suite 18",North Las Vegas,89030,Tier 1 Local Emerging Small Business,"[{'NAICS Code': '722320', 'Description': 'Caterers', 'Capability': 'full service catering for up to 2500 guests'}]",[]
Digitrix LLC,Tier 1 Local Emerging Small Business,,,,https://digitrixllc.com,10812 Lost Ark Avenue,Las Vegas,89129,Tier 1 Local Emerging Small Business,"[{'NAICS Code': '541511', 'Description': 'Custom Computer Programming Services', 'Capability': 'Application Development'}]",[]
Blue Diamond Civil Engineering LLC,Tier 1 Local Emerging Small Business,,,,https://bluediamondcivilengineering.com,9816 Gilespie St #120,Las Vegas,89183,Tier 1 Local Emerging Small Business,"[{'NAICS Code': '541330', 'Description': 'Engineering services', 'Capability': 'Civil engineering services'}]",[]
PACIFIC ALTERNATIVE ENERGY RESOURCE LLC,Tier 1 Local Emerging Small Business,,,david@pacaltenergy.com,https://pacaltenergy.com,2360 Armstrong Lane,Reno,89509,Tier 1 Local Emerging Small Business,"[{'NAICS Code': '541614', 'Description': 'Process, Physical Distribution, and Logistics Consulting Services', 'Capability': 'Logistics consulting, management,'}]",[]
Treffen Technology LLC,Tier 1 Local Emerging Small Business,,,admin@treffentech.com,https://www.treffentech.com,5116 N TIOGA WAY,LAS VEGAS,89149,Tier 1 Local Emerging Small Business,"[{'NAICS Code': '541618', 'Description': 'Telecommunications management consulting services', 'Capability': 'Consulting, O&M Mgmt, RF design, RF interference resolution, High level telecomm Management'}]",[]
"BCC Management, Inc.",Tier 2 Local Emerging Small Business,,,rkolnes@bccmgmt.com,https://www.bccmgmt.com,"6037 S Fort Apache Rd, Ste 110",Las Vegas,89148,Tier 2 Local Emerging Small Business,"[{'NAICS Code': '541330', 'Description': 'Engineering Services', 'Capability': 'Building System Commissioning'}]",[]
Quest Productions LLC,Tier 1 Local Emerging Small Business,,,,,965 White Drive Ste 200,Las Vegas,89119,Tier 1 Local Emerging Small Business,"[{'NAICS Code': '321219', 'Description': 'Reconstituted Wood Product Manufacturing', 'Capability': 'LLC'}]",[]
Leading Edge Business Services LLC,Tier 1 Local Emerging Small Business,,,info@lebs.tech,https://www.leadingedgebusiness.com,610 N Rainbow Blvd,Las Vegas,89107,Tier 1 Local Emerging Small Business,"[{'NAICS Code': '323111', 'Description': 'Commercial Printing', 'Capability': 'Business Print Products'}]",[]
Western Union Supplies,Tier 1 Local Emerging Small Business,,,D.T.C213@outlook.com,,516 Byrnes Ave,Las Vegas,89106,Tier 1 Local Emerging Small Business,"[{'NAICS Code': '315210', 'Description': 'Cut and Sew Apparel Contractors', 'Capability': 'sm med'}]",[]
The Firm Media Group LLC,Tier 1 Local Emerging Small Business,,,alex@firmmediagroup.com,https://surveillanceinstallations.vegas,4948 Mountain Vista #13551,Las Vegas,89121,Tier 1 Local Emerging Small Business,"[{'NAICS Code': '238210', 'Description': 'Electrical, electrical wiring, and low voltage electrical work', 'Capability': 'Low Voltage'}]",[]
Skyy Corp dba Clark County Heating & Cooling,Tier 1 Local Emerging Small Business,,,info@clarkcountyheatingcooling.com,https://clarkcountyheatingcooling.com/,4253 Country Glenn Cir,North Las Vegas,89032,Tier 1 Local Emerging Small Business,"[{'NAICS Code': '238220', 'Description': 'Plumbing, Heating, and Air-Conditioning Contractors', 'Capability': 'HVAC - heating, ventilation, and air conditioning (HVAC) installation, repairs, and service'}]",[]
"Continuing Education And Training, LLC",Tier 1 Local Emerging Small Business,,,info@christineburke.com,https://www.geneticgenealogyforensicservices.com/,"1535 County Road, #2",Minden,89423,Tier 1 Local Emerging Small Business,"[{'NAICS Code': '611519', 'Description': 'Police Training Schools', 'Capability': 'Genetic Genealogy, Police Investigations'}]",[]
Ruben Puno,Tier 1 Local Emerging Small Business,,,info@resitechnical.com,https://www.resitechnical.com,3991 White Oak Lane,Sparks,89436,Tier 1 Local Emerging Small Business,"[{'NAICS Code': '541512', 'Description': 'Computer systems design services', 'Capability': ''}]",[]
Figure IT Out LLC,Tier 1 Local Emerging Small Business,,,younme415@gmail.com,,1840 Vanderbilt Ct,Las Vegas,89104,Tier 1 Local Emerging Small Business,"[{'NAICS Code': '541922', 'Description': 'Commercial Photography', 'Capability': 'Commercial Photography services'}]",[]
Technical Medical LLC,Tier 1 Local Emerging Small Business,,,secure@techmedems.com,https://sites.google.com/view/techmedems/home,898 Maestro Dr Suite 101,Reno,89511,Tier 1 Local Emerging Small Business,"[{'NAICS Code': '621910', 'Description': 'Ambulance Services', 'Capability': 'Advances Life Support Ground Ambulance and Emergency Medical Services'}]",[]
L & M Welding LLC,Tier 2 Local Emerging Small Business,,,welding@cascadeaccess.com,https://LMWelding.com,255 West Mesquite Blvd,Mesquite,89027,Tier 2 Local Emerging Small Business,"[{'NAICS Code': '332312', 'Description': 'structural steel, fabricated, manufacturing', 'Capability': 'Welding, Ornamental iron fence gates, Structural'}]",[]
AA Fine Grade Equipment,Tier 1 Local Emerging Small Business,,,GeneralMailbox@aafinegradeequipment.com,,238 Chester Way,Elko,89801,Tier 1 Local Emerging Small Business,"[{'NAICS Code': '237310', 'Description': 'Highway, Street, and Bridge Construction', 'Capability': 'Grading, highway, road, street and airport runway'}]",[]
Safe Steps Academy,Tier 1 Local Emerging Small Business,,,info@safestepsacademy.com,https://www.safestepsacademy.com,4079 N Rancho Suite 190,Las Vegas,89113,Tier 1 Local Emerging Small Business,"[{'NAICS Code': '611699', 'Description': 'All Other Miscellaneous Schools and Instruction', 'Capability': 'CPR and Safety Training Classes'}]",[]
Hot Desert Air Conditioning & Heating LLC,Tier 1 Local Emerging Small Business,,,,,5430 TAMI PL,LAS VEGAS,89120,Tier 1 Local Emerging Small Business,"[{'NAICS Code': '238220', 'Description': 'Plumbing, Heating, and Air-Conditioning Contractors', 'Capability': 'HVAC'}]",[]
Colton Mechanical LLC,Tier 1 Local Emerging Small Business,,,dave.coltonmechanical@gmail.com,https://WWW.COLTONMECHANICAL.COM,6545 S FORT APACHE RD STE 135 #467,Las Vegas,89148,Tier 1 Local Emerging Small Business,"[{'NAICS Code': '238220', 'Description': 'PLUMBING, HEATING, AND AIR CONDITIONING CONTRACTORS', 'Capability': 'HVAC'}]",[]
The Merrill Group,Tier 1 Local Emerging Small Business,,,,,10068 Pacific Peak Street,Las Vegas,89178,Tier 1 Local Emerging Small Business,"[{'NAICS Code': '541511', 'Description': 'Custom Computer Programming Services', 'Capability': 'Software publishers and Software Development'}]",[]
BIZGAM,Tier 1 Local Emerging Small Business,,,,,2852 vigilante ct,las vegas,89081,Tier 1 Local Emerging Small Business,"[{'NAICS Code': '425120', 'Description': 'marketing', 'Capability': 'distribute'}]",[]
"Legacy Hospitality, LLC",Tier 1 Local Emerging Small Business,,,,https://www.CraftLV.com,4255 Dean Martin Dr. Suite G.,Las Vegas,89103,Tier 1 Local Emerging Small Business,"[{'NAICS Code': '722320', 'Description': 'Caterer', 'Capability': ''}]",[]
A Mindful Change Behavioral Health,Tier 1 Local Emerging Small Business,,,contact@judgmentfreeme.org,https://judgmentfreeme.org,"916 Nevada Way, Ste 5",Boulder City,89005,Tier 1 Local Emerging Small Business,"[{'NAICS Code': '621330', 'Description': ""Social workers', mental health, offices (e.g., centers, clinics)"", 'Capability': 'Outpatient Mental Health Services'}]",[]
"Infinity Fence, LLC",Tier 1 Local Emerging Small Business,,,SALES@INFINITYFENCENV.COM,https://WWW.INFINITYFENCENV.COM,184 Sunshine Lane,SPRING CREEK,89815,Tier 1 Local Emerging Small Business,"[{'NAICS Code': '238990', 'Description': 'Fencing Contractors', 'Capability': 'Fence Installation'}]",[]
Chips and Bits IT LLC,Tier 1 Local Emerging Small Business,,,sassan@chipsandbitsit.com,https://www.chipsandbitsit.com,"6295 MCLEOD DRIVE, UNIT 18",LAS VEGAS,89120,Tier 1 Local Emerging Small Business,"[{'NAICS Code': '541510', 'Description': 'Computer Systems Design and Related Services', 'Capability': 'IT Company'}]",[]
Mimosa Royale LLC,Tier 1 Local Emerging Small Business,,,sales@drinkmimosa.com,https://www.DrinkMimosa.com,694 Fenwick Lane,Henderson,89052,Tier 1 Local Emerging Small Business,"[{'NAICS Code': '312130', 'Description': 'Wineries', 'Capability': 'Mimosa Royale'}]",[]
Ra’Neisha Hall,Tier 1 Local Emerging Small Business,,,hello@wonderschool.com,,7227 W Windmill ln Unit 226,Las Vegas,89113,Tier 1 Local Emerging Small Business,"[{'NAICS Code': '624110', 'Description': 'Child and Youth Services', 'Capability': ''}]",[]
Silver State Dirtworks LLC,Tier 1 Local Emerging Small Business,,,silverstatedirtworks@gmail.com,https://www.SilverStateDirtworks.com,4800 Koenig Rd,Reno,89506,Tier 1 Local Emerging Small Business,"[{'NAICS Code': '238910', 'Description': 'Excavating, earthmoving, or land clearing contractors', 'Capability': ''}]",[]
"Sego Engineering, LLC",Tier 1 Local Emerging Small Business,,,brian@segoengineering.com,https://www.segoengineering.com,4885 Piedmont Place,Reno,89502,Tier 1 Local Emerging Small Business,"[{'NAICS Code': '541330', 'Description': 'Engineering services', 'Capability': 'mechanical engineering services'}]",[]
Teigic Solutions LLC,Tier 1 Local Emerging Small Business,,,tyrell.schoolfield@teigic.com,https://teigic.com/,148 Rolling Cove Ave,Henderson,89011,Tier 1 Local Emerging Small Business,"[{'NAICS Code': '541611', 'Description': 'Administrative Management & General Management Consulting Services', 'Capability': ''}]",[]
ls lous llc,Tier 2 Local Emerging Small Business,,,,,4284 spring mountain rd #108,las vegas,89102,Tier 2 Local Emerging Small Business,"[{'NAICS Code': '722515', 'Description': 'Snack and Nonalcoholic Beverage Bars', 'Capability': 'smoothie, boba shop, boba milk tea'}]",[]
LG Logistics LLC,Tier 1 Local Emerging Small Business,,,LGLEW2021@gmail.com,https://www.lglogistics.com/,2428 COUNTRY VALLEY CT,NORTH LAS VEGAS,89030,Tier 1 Local Emerging Small Business,"[{'NAICS Code': '481112', 'Description': 'Freight Carriers (except air couriers), air, scheduled', 'Capability': ''}]",[]
Superhot LLc,Tier 1 Local Emerging Small Business,,,restore@pro-cleandecon.com,https://www.procleanwaterdamage.com,3515 Calf Roper Ct,Las Vegas,89032,Tier 1 Local Emerging Small Business,"[{'NAICS Code': '236220', 'Description': 'Commercial and institutional building construction', 'Capability': 'water damage,mold,  hoarding cleanup, bio clean up'}]",[]
JACQUELINE JONES,Tier 1 Local Emerging Small Business,,,info@taxcreditcalculators.com,,848 N RAINBOW BLVD #4841,LAS VEGAS,89107,Tier 1 Local Emerging Small Business,"[{'NAICS Code': '541611', 'Description': 'Administrative management consulting, business management consulting', 'Capability': 'engaged in providing operating advice and assistance to businesses and other organizations on administrative management issues, such as financial planning, budgeting, cost, expense and tax analysis.1'}]",[]
Maberry Consulting and Evaluation Services LLC,Tier 1 Local Emerging Small Business,,,smaberry@maberryconsulting.com,https://www.maberryconsulting.com,3660 St. Rose Parkway,Henderson,89052,Tier 1 Local Emerging Small Business,"[{'NAICS Code': '611710', 'Description': 'Educational Support Services', 'Capability': 'Grant program evaluation'}]",[]
Rooted Ltd.,Tier 1 Local Emerging Small Business,,,,,811 Lander St.,Reno,89509,Tier 1 Local Emerging Small Business,"[{'NAICS Code': '111411', 'Description': 'Mushroom Production', 'Capability': ''}]",[]
Access Healthcare Staffing & Recruitment Inc,Tier 1 Local Emerging Small Business,,,admin@ahcsr.com,https://www.accesshealthcareus.com,"7448 W Sahara Ave, #105",Las Vegas,89117,Tier 1 Local Emerging Small Business,"[{'NAICS Code': '561320', 'Description': 'Temporary Help Services', 'Capability': 'Nurse Staffing Services'}]",[]
"EJM, LLC",Tier 1 Local Emerging Small Business,,,HackmannJ@hlcmail.com,,"7565 W. Washington Ave., Ste. 104",Las Vegas,89128,Tier 1 Local Emerging Small Business,"[{'NAICS Code': '611691', 'Description': 'Tutoring & Test Preparation - Educational services', 'Capability': 'Academic Tutoring & Test Preparation'}]",[]
Good Brothers Solutions LLC,Tier 1 Local Emerging Small Business,,,,,855 n stephanie st Unit 2021,henderson,89014,Tier 1 Local Emerging Small Business,"[{'NAICS Code': '492110', 'Description': 'Couriers and Express Delivery Services', 'Capability': 'Courier services - Providing courier and express delivery services of parcels and goods.'}]",[]
Bizz Solutions,Tier 1 Local Emerging Small Business,,,bizzsolutions12@gmail.com,,5035 Camino Del Santo Pkwy,North Las Vegas,89031,Tier 1 Local Emerging Small Business,"[{'NAICS Code': '541219', 'Description': 'Other Accounting Services', 'Capability': 'Bookkeeping - over see accounts'}]",[]
ESIG LLC,Tier 1 Local Emerging Small Business,,,info@eshomesolutions.com,https://eshomesolutions.com,3502 Rio Robles Dr. Unit D,North Las Vegas,89030,Tier 1 Local Emerging Small Business,"[{'NAICS Code': '531190', 'Description': 'Lessors of Other Real Estate Property', 'Capability': 'We provide both commercial and residential real estate services such as housing providers, relocation services, temporary housing, listing, leasing, selling, renovation, and property management'}]",[]
ESI Analytics LTD.,Tier 1 Local Emerging Small Business,,,,https://ajslegalnv.com,"2920 N Green Valley Pkwy, Bldg 5, Suite 524",Henderson,89014,Tier 1 Local Emerging Small Business,"[{'NAICS Code': '541110', 'Description': 'Full Service Law Firm', 'Capability': 'Offices of Lawyers'}]",[]
"Logistical Solutions, LLC",Tier 2 Local Emerging Small Business,,,ap@losonow.com,https://www.losonow.com,"4780 W Ann Rd., #5-237",North Las Vegas,89031,Tier 2 Local Emerging Small Business,"[{'NAICS Code': '541620', 'Description': 'Environmental Consulting Services', 'Capability': ''}]",[]
Elaphos Environmental LLC,Tier 1 Local Emerging Small Business,,,mokhayesh@elaphosenv.com,https://www.elaphosenv.com,"1575 W Warm Springs Rd, 211",Henderson,89014,Tier 1 Local Emerging Small Business,"[{'NAICS Code': '541990', 'Description': 'All other Professional, scientific, technical services', 'Capability': 'Biological and environmental consulting'}]",[]
"Lovingly Behavioral Wellness, LLC",Tier 1 Local Emerging Small Business,,,,https://lovinglybehavioralwellness.com/,4929 Lazy Day Court,Las Vegas,89131,Tier 1 Local Emerging Small Business,"[{'NAICS Code': '621330', 'Description': 'Offices of Mental Health Practitioners (except Physicians)', 'Capability': 'ABA Provider'}]",[]
S&R Valvo Consulting LLC,Tier 1 Local Emerging Small Business,,,russell@valvoconsulting.com,https://valvoconsulting.com,10211 Danskin Drive,Las Vegas,89166,Tier 1 Local Emerging Small Business,"[{'NAICS Code': '541611', 'Description': 'Administrative Management and General Management Consulting Services', 'Capability': ''}]",[]
Eympowrd ::C,Tier 1 Local Emerging Small Business,,,eympowrd@gmail.com,,1810 E SAHARA AVE STE 212 #2755,Las Vegas,89104,Tier 1 Local Emerging Small Business,"[{'NAICS Code': '541611', 'Description': 'Management', 'Capability': 'Management'}]",[]
"CriticalTilt, Inc.",Tier 1 Local Emerging Small Business,,,hello@criticaltilt.com,https://www.criticaltilt.com,"871 Coronado Center Dr., Ste 200",Henderson,89052,Tier 1 Local Emerging Small Business,"[{'NAICS Code': '518210', 'Description': 'Computing Infrastructure Providers, Data Processing, Web Hosting, and Related Services', 'Capability': 'AWS, Nutanix, VMware, Cisco, Arista, Juniper, Dell, HPE, Splunk, Dynatrace, Dragos, NetApp,, others'}]",[]
Chill Rite Inc.,Tier 2 Local Emerging Small Business,,,marie@chillrite.com,https://www.chillrite.com,6295 McLeod Dr Ste 1,Las Vegas,89120,Tier 2 Local Emerging Small Business,"[{'NAICS Code': '238220', 'Description': 'Plumbing, Heating, and Air-Conditioning Contractors', 'Capability': ''}]",[]
ZYN CITY MANAGEMENT LLC,Tier 1 Local Emerging Small Business,,,zyncitymanagement@gmail.com,,2598 MIZZONI CIRCLE,HENDERSON,89052,Tier 1 Local Emerging Small Business,"[{'NAICS Code': '561499', 'Description': 'All Other Business Support Services', 'Capability': ''}]",[]
Golden Medina Services LLC,Tier 1 Local Emerging Small Business,,,,https://thegoldenmedina.com,3776 Howard Hughes Pkwy,Las Vegas,89169,Tier 1 Local Emerging Small Business,"[{'NAICS Code': '541613', 'Description': 'Marketing Consulting Services', 'Capability': 'Social Media Marketing Strategy & Implementation'}]",[]
Sunrise Suds LLC,Tier 1 Local Emerging Small Business,,,,,460 MEADOW GLEN DR,Fallon,89406,Tier 1 Local Emerging Small Business,"[{'NAICS Code': '811121', 'Description': 'Automotive Body, Paint, and Interior Repair and Maintenance', 'Capability': ''}]",[]
Saatvik Advisors,Tier 1 Local Emerging Small Business,,,,https://www.saatvikadvisors.com,1420 E Cougar Street,Silver Springs,89429,Tier 1 Local Emerging Small Business,"[{'NAICS Code': '541611', 'Description': 'Administrative Management and General Management Consulting Services', 'Capability': 'Federally mandated IPv6 certification for manufactures of internet-enabled equipment.  Federally mandated CMMC assessment'}]",[]
Her Secret Vault,Tier 1 Local Emerging Small Business,,,patrice@hersecretvault.net,https://www.hersecretvault.net,6543 S Las Vegas Blvd.,Las Vegas,89119,Tier 1 Local Emerging Small Business,"[{'NAICS Code': '611430', 'Description': 'Professional and Management Development Training', 'Capability': 'Small Business Training'}]",[]
Tamar M Austin,Tier 1 Local Emerging Small Business,,,tamar.m.austin@gmail.com,,45 Maleena mesa st apt 1818 apt 1818,henderson,89074,Tier 1 Local Emerging Small Business,"[{'NAICS Code': '813410', 'Description': 'Civic and Social Organization', 'Capability': ''}]",[]
Remarkable Cleaning LLc,Tier 1 Local Emerging Small Business,,,rc15@remarkablecleaning.org,,2675 S Nellis Blvd #2017,Las Vegas,89121,Tier 1 Local Emerging Small Business,"[{'NAICS Code': '561720', 'Description': 'Janitorial Services', 'Capability': 'Maintenance , janitorial services and cleaning'}]",[]
IVINTAGE SOLUTIONS INC,Tier 1 Local Emerging Small Business,,,anil@ivintagesolutions.com,https://www.ivintagesolutions.com,2654 W HORIZON RIDGE PKWY STEB5 PM,HENDERSON,89052,Tier 1 Local Emerging Small Business,"[{'NAICS Code': '541512', 'Description': 'Computer Systems Design Services', 'Capability': 'IT development, consulting and staffing'}]",[]
Sleds LLC,Tier 1 Local Emerging Small Business,,,solarledstrips@gmail.com,https://www.solarledsafety.com/,"7580 Las Vegas Blvd S, #115",Las Vegas,89123,Tier 1 Local Emerging Small Business,"[{'NAICS Code': '339113', 'Description': 'Personal safety devices, not specified elsewhere, manufacturing', 'Capability': ''}]",[]
"AIRIX ARMOR, LLC",Tier 1 Local Emerging Small Business,,,info@airixarmor.com,https://airixarmor.com,"401 Ryland Street, Suite 200A",Reno,89502,Tier 1 Local Emerging Small Business,"[{'NAICS Code': '454110', 'Description': 'Electronic Shopping and Mail Order', 'Capability': 'Wholesale/Retail/Consulting/Manufacturing/E-Commerce/Product Development/Analytics/Government/PublicPolicy/NationalDefense/SecurityProducts/OutdoorsProducts/MedicalProducts'}]",[]
JOHN M HARRIS III A GRADE NEVADA,Tier 1 Local Emerging Small Business,,,solutions@agradenevada.com,https://www.AGradeNevada.com,7498 Crystal Clear Ave,Las Vegas,89113,Tier 1 Local Emerging Small Business,"[{'NAICS Code': '561710', 'Description': 'Exterminating and Pest Control Services', 'Capability': 'Pest control (except agricultural, forestry) services'}]",[]
Jerry Pewett,Tier 1 Local Emerging Small Business,,,Demorecycle1@gmail.com,https://5fec61a273bdc.site123.me/,544 parkson rd,Henderson,89011,Tier 1 Local Emerging Small Business,"[{'NAICS Code': '423930', 'Description': 'Recyclable Material Merchant Wholesalers', 'Capability': 'Recycling - Metal scrap and waste merchant  wholesalers recycling'}]",[]
R and C Products & Services LLC,Tier 1 Local Emerging Small Business,,,,,7631 Plunging Falls Dr,Las vegas,89131,Tier 1 Local Emerging Small Business,"[{'NAICS Code': '423450', 'Description': 'Medical, Dental, and Hospital Equipment and Supplies Merchant Wholesalers', 'Capability': 'Admin/supply with DOD (Lewis/McChord)'}]",[]
Apex Janitorial LLC,Tier 1 Local Emerging Small Business,,,ApexjanitorialNV@gmail.com,,530 MELARKEY ST STE 206,WINNEMUCCA,89445-3168,Tier 1 Local Emerging Small Business,"[{'NAICS Code': '561720', 'Description': 'Janitorial services', 'Capability': 'Homes, Commercial Businesses, Building cleaning services, interior, Bathrooms, Kitchens, Offices, Etc'}]",[]
Milligan Construction Group LLC,Tier 1 Local Emerging Small Business,,,cody@milliganconstructiongroup.com,https://www.milliganconstructiongroup.com,9613 Monarch Grove Street,Las Vegas,89139,Tier 1 Local Emerging Small Business,"[{'NAICS Code': '238320', 'Description': 'Painting and Wall Covering Contractors', 'Capability': ''}]",[]
Caryem Painting LLC,Tier 1 Local Emerging Small Business,,,caryempaintingllc@gmail.com,,3651 Descanso St,Las Vegas,89121,Tier 1 Local Emerging Small Business,"[{'NAICS Code': '238320', 'Description': 'Painting and Wall Covering Contractor', 'Capability': 'Painting interior and exterior Residential and Commercial'}]",[]
"PCNA Consulting Group, Inc.",Tier 2 Local Emerging Small Business,,,michael@pcnagroup.com,https://www.pcnagroup.com,"8945 W. Russell Rd, Ste 320",Las Vegas,89148,Tier 2 Local Emerging Small Business,"[{'NAICS Code': '541330', 'Description': 'Engineering Services', 'Capability': 'Fire Protection Engineering'}]",[]
Mountaintop Vents LLC,Tier 1 Local Emerging Small Business,,,mike@mountaintopvents.org,https://www.mountaintopvents.org,31 Chinook Cir,Carson City,89701,Tier 1 Local Emerging Small Business,"[{'NAICS Code': '561790', 'Description': 'Duct Cleaning Services', 'Capability': 'Air Duct Cleaning'}]",[]
"CognoCorp, Inc",Tier 1 Local Emerging Small Business,,,getangela@hotmail.com,,3773 Lone Mesa Drive,Las Vegas,89147,Tier 1 Local Emerging Small Business,"[{'NAICS Code': '459410', 'Description': 'Office Supplies and Stationery Retailers', 'Capability': ''}]",[]
OnePercent Solutions LLC,Tier 1 Local Emerging Small Business,,,mike@onepercentsolutions.com,,10151 Mollard Ave.,Las Vegas,89178,Tier 1 Local Emerging Small Business,"[{'NAICS Code': '541611', 'Description': 'Administrative Management and General Management Consulting Services', 'Capability': ''}]",[]
T4 Construction LLC,Tier 2 Local Emerging Small Business,,,,https://www.t4constructioncompany.com,6375 South Pecos Suite 112,LAS VEGAS,89120,Tier 2 Local Emerging Small Business,"[{'NAICS Code': '236220', 'Description': 'Commercial and Institutional Building Construction', 'Capability': 'Tenant Improvement/Remodel/Grey Shell build out'}]",[]
"Neon Compass Maps, LLC",Tier 1 Local Emerging Small Business,,,maps@neoncompasslv.com,https://neoncompasslv.com,634 Apollo Ave,Henderson,89002,Tier 1 Local Emerging Small Business,"[{'NAICS Code': '541370', 'Description': 'Surveying and Mapping (except Geophysical) Services', 'Capability': 'Business Marketing Mapping'}]",[]
Garcia Lawn Service Inc,Tier 1 Local Emerging Small Business,,,office@garcialandscaping.net,https://www.garcialandscaping.net,1527 West Bonanza Road,Las Vegas,89106,Tier 1 Local Emerging Small Business,"[{'NAICS Code': '561730', 'Description': 'Landscaping Services', 'Capability': 'landscaping'}]",[]
Tampa Bay Food Trucks,Food and catering services in Tampa,813-802-9119,,,https://www.sbdpro.com/business/tampa-bay-food-trucks,,,,,[],[]
5 Borough Limo Service & Party Bus Rental,Has some of the nicest and newest party busses and limos anywhere in NYC,(347) 309-5568,,,https://www.sbdpro.com/business/5-borough-limo-service-party-bus-rental,,,,,[],[]
Real Deal Casino Parties,You deserve a Real Deal!,(407) 777-0369,,,https://www.sbdpro.com/business/real-deal-casino-parties,,,,,[],[]
Limelight Projection Mapping 3D Content and Immersive Experience Studios - Bay Area,Event Services,(415) 515-6461,,,https://www.sbdpro.com/business/limelight-projection-mapping-3d-content-and-immersive-experience-studios-bay-area,,,,,[],[]
Legacy Renewal Properties LLC,Tier 1 Local Emerging Small Business,,,REGGIE.BROWN@WAFFLESCAFE.VEGAS,https://www.WafflesCafe.Vegas,6112 Mott Smith St,North Las Vegas,89081,Tier 1 Local Emerging Small Business,"[{'NAICS Code': '722513', 'Description': 'Family restaurants/Limited Service', 'Capability': 'Preparing and serving food and beverage for customers who are dining inside the restaurant, taking out orders or having their ordered delived.'}]",[]
"Logo Fusion U.S.A, Inc.",Tier 1 Local Emerging Small Business,,,,https://logoufusionusa.com,7084 Spring Beauty Avenue,Las Vegas,89131,Tier 1 Local Emerging Small Business,"[{'NAICS Code': '541890', 'Description': 'Other Services Related to Advertising', 'Capability': 'Advertising Specialty'}]",[]
"BRAND Architecture, LLP",tier_one,,,,https://www.brand-archlv.com,9661 Bella Citta St,Las Vegas,89178,tier_one,"[{'NAICS Code': '541310', 'Description': 'Architectural Services', 'Capability': 'Building architectural design services'}]",[]
"Larnell Alan Enterprises, LLC",Tier 1 Local Emerging Small Business,,,info@larnellalan.com,https://onewellbyla.com,"9005 W SAHARA AVE,",Las Vegas,89117,Tier 1 Local Emerging Small Business,"[{'NAICS Code': '812331', 'Description': 'Linen Supply', 'Capability': '9 million per month'}]",[]
Pilot Consulting,Tier 1 Local Emerging Small Business,,,fpilot@pilot.consulting,,1108 Lahontan Drive,Carson City,89701,Tier 1 Local Emerging Small Business,"[{'NAICS Code': '541611', 'Description': 'Administrative Management and General Management Consulting Services', 'Capability': ''}]",[]
"Bite Rite, Inc",Tier 1 Local Emerging Small Business,,,info@smartchoiceslv.com,https://www.smartchoiceslv.com,900 S. Valley View Blvd  Suite 195,Las Vegas,89107,Tier 1 Local Emerging Small Business,"[{'NAICS Code': '621420', 'Description': 'Outpatient Mental Health & Substance Abuse', 'Capability': 'Court Mandated Education & Substance Abuse TX'}]",[]
S&R Valvo Consulting LLC,Tier 1 Local Emerging Small Business,N/A,,russell@valvoconsulting.com,https://valvoconsulting.com,10211 Danskin Drive,Las Vegas,89166,Tier 1 Local Emerging Small Business,"[{'NAICS Code': '541611', 'Description': 'Administrative Management and General Management Consulting Services', 'Capability': ''}]",[]
"American Project Management, LLC",Tier 1 Local Emerging Small Business,N/A,,N/A,https://www.apmlasvegas.com,"923 Serena Veneda Lane Las Vegas, NV 89138",N/A,N/A,Tier 1 Local Emerging Small Business,"[{'NAICS Code': '541990', 'Description': 'All Other Professional Scientific & Technical Services', 'Capability': 'Scheduling Consulting'}]",[]
Moody’s Auto Glass LLC,Tier 1 Local Emerging Small Business,N/A,,N/A,N/A,7625 Moore Creek ln,North Las Vegas,89084,Tier 1 Local Emerging Small Business,"[{'NAICS Code': '811111', 'Description': 'General Automotive Repair', 'Capability': 'Mobile automotive and truck repair services'}]",[]
Distinctive Contractors LLC,Tier 1 Local Emerging Small Business,N/A,,admin@distinctivecontractor.com,https://distinctivecontractorsllc.com,6787 W Tropicana Ave #271,Las Vegas,89103,Tier 1 Local Emerging Small Business,"[{'NAICS Code': '236115', 'Description': 'Residential construction, single-family, general contractors', 'Capability': ''}]",[]
"Thomas Bates, LLC",Tier 1 Local Emerging Small Business,N/A,,thomasbatesllc@gmail.com,https://n/a,9302 Mayfair Way,Reno,89521,Tier 1 Local Emerging Small Business,"[{'NAICS Code': '541310', 'Description': 'Architectural Services', 'Capability': 'Designing AV, telecom, security, and lighting systems for various projects including hospitality, corporate offices, museums, and retail spaces'}]",[]
RSD Nevada LLC,Tier 1 Local Emerging Small Business,N/A,,readysetdisinfect@outlook.com,https://www.readysetdisinfect.com,304 S Jones Blvd #3249,Las Vegas,89107,Tier 1 Local Emerging Small Business,"[{'NAICS Code': '561720', 'Description': 'Disinfecting Services', 'Capability': 'From Small to Large Buildings'}]",[]
